{"type":"FeatureCollection", "features": [
{"type":"Feature","geometry":{"type":"Polygon","coordinates":[[[-114.004721489887,46.8752623339357],[-114.004932275953,46.8749364970203],[-114.005429316194,46.874278144183],[-114.007983632495,46.8702098950696],[-114.007985560342,46.8694688370488],[-114.007385848035,46.8694681014807],[-114.007387423704,46.8688648667522],[-114.007987130436,46.8688656004631],[-114.007993338606,46.8664800733507],[-114.009512527067,46.8664819181975],[-114.009514008852,46.865906101067],[-114.012872179654,46.8659101075704],[-114.012870733864,46.8664859247437],[-114.022243956626,46.8664941746993],[-114.022246301145,46.8659183592736],[-114.02448507722,46.8659226178748],[-114.024481100573,46.8669097291263],[-114.024315728121,46.8670464895019],[-114.024356870472,46.8678959701696],[-114.024350190954,46.8695499200702],[-114.024269687405,46.8696841255913],[-114.024266481669,46.8704794737449],[-114.024467187012,46.8704799790768],[-114.02446558263,46.8708364354996],[-114.024144212462,46.871054886645],[-114.024141044699,46.8718747191949],[-114.024461017287,46.8718504672998],[-114.024457336187,46.8728105978309],[-114.024416201009,46.8730024462998],[-114.024413490822,46.8739523204909],[-114.022532858945,46.8739608489652],[-114.022560772499,46.8748222697132],[-114.023182668752,46.8748269891762],[-114.023053247156,46.8752404154422],[-114.023044979243,46.8759224734548],[-114.022542867904,46.8759189957502],[-114.022539006667,46.876155545588],[-114.021188269901,46.876155471922],[-114.020262992569,46.8766100766573],[-114.020261901597,46.8773112298869],[-114.019977146455,46.8776028401634],[-114.019569300677,46.877843043306],[-114.019569908098,46.877982058284],[-114.019945133321,46.8781446050981],[-114.020441898912,46.8784479103159],[-114.020720721259,46.8786846983476],[-114.020709594333,46.8789268864605],[-114.024153972269,46.8832644176995],[-114.02267432241,46.8839487713242],[-114.018267121541,46.883948882218],[-114.018288309263,46.8785789397329],[-114.002613787835,46.8785490775457],[-114.002889128682,46.8781383658908],[-114.004102077395,46.8762429603347],[-114.004721489887,46.8752623339357]]]},"properties":{"OBJECTID":421,"FeatureName":"URD II","created_user":"svcgisdatainterop","created_date":"Tue, 23 Sep 2025 09:37:33 GMT","last_edited_user":"svcgisdatainterop","last_edited_date":"Tue, 23 Sep 2025 09:37:33 GMT","GlobalID":"8799f33d-7c49-40ce-a557-efaf771c47a9","MSO_ID":"AD-URD-10004","MSOID1":"AD","MSOID2":"URD","MSOID3":10004},"id":421},
{"type":"Feature","geometry":{"type":"Polygon","coordinates":[[[-113.998820251045,46.8716011568942],[-113.998767891087,46.8715641332397],[-113.999691820172,46.8709527385486],[-114.000338555267,46.8713825658594],[-114.002026725048,46.873234591737],[-114.00276076676,46.8738476472513],[-114.003342997973,46.8741951559322],[-114.003987588223,46.8744863386094],[-114.00432971187,46.8746091416822],[-114.004863401932,46.8747632937775],[-114.005020841557,46.8748191901915],[-114.004932275953,46.8749364970203],[-114.004721489887,46.8752623339357],[-114.004573043254,46.8754964148809],[-113.996723350906,46.8731534242776],[-113.997498385179,46.8719550378311],[-113.998120343064,46.8720064188971],[-113.998375917673,46.8718933083563],[-113.998746960889,46.8716477080372],[-113.998820251045,46.8716011568942]]]},"properties":{"OBJECTID":422,"FeatureName":"Riverfront Triangle","created_user":"svcgisdatainterop","created_date":"Tue, 23 Sep 2025 09:37:33 GMT","last_edited_user":"svcgisdatainterop","last_edited_date":"Tue, 23 Sep 2025 09:37:33 GMT","GlobalID":"1d46694a-d4d7-400f-9d9c-4d3ef4f44a17","MSO_ID":"AD-URD-10005","MSOID1":"AD","MSOID2":"URD","MSOID3":10005},"id":422},
{"type":"Feature","geometry":{"type":"Polygon","coordinates":[[[-113.987000769849,46.8696847525],[-113.98739174379,46.8690687551448],[-113.987436565392,46.8688706322688],[-113.987418485076,46.8669802042458],[-113.987992636364,46.8669839712964],[-113.98973275268,46.8669490653909],[-113.992374096761,46.8668281729899],[-113.993251053288,46.8668443498431],[-113.994411133316,46.8670015031795],[-113.994956610289,46.8671828626165],[-113.996225038069,46.8677498803844],[-113.997294698364,46.868299367226],[-113.998180836804,46.8691603565818],[-113.99887245459,46.8700543659096],[-113.999733151086,46.87092538756],[-113.998767887307,46.8715641351919],[-113.998820251045,46.8716011568942],[-113.998748383465,46.8716487130864],[-113.99849956455,46.8714727915754],[-113.998174005178,46.8712426079285],[-113.997773181806,46.87095920597],[-113.997301397818,46.8707063827587],[-113.996759158869,46.8702591848251],[-113.995774098138,46.86967801001],[-113.995332032608,46.8704758177296],[-113.994742009043,46.8714271503678],[-113.991478650808,46.8704567772761],[-113.986875268477,46.8698892757972],[-113.987000769849,46.8696847525]]]},"properties":{"OBJECTID":423,"FeatureName":"Front Street","created_user":"svcgisdatainterop","created_date":"Tue, 23 Sep 2025 09:37:33 GMT","last_edited_user":"svcgisdatainterop","last_edited_date":"Tue, 23 Sep 2025 09:37:33 GMT","GlobalID":"b4f69d0b-35d7-433d-bbf0-3bece85b9441","MSO_ID":"AD-URD-10002","MSOID1":"AD","MSOID2":"URD","MSOID3":10002},"id":423},
{"type":"Feature","geometry":{"type":"Polygon","coordinates":[[[-114.034414321607,46.9041292045399],[-114.034397871177,46.9033373331267],[-114.034295258448,46.9020261411889],[-114.034594506134,46.9020216407622],[-114.035075366186,46.9015733963333],[-114.034272679636,46.9011679389379],[-114.034157876799,46.9007032932516],[-114.034159774645,46.8997307160748],[-114.037460897606,46.8997196495834],[-114.037483326067,46.8980661970719],[-114.027772011503,46.8931834681304],[-114.023817362177,46.8911829903322],[-114.023758710648,46.8924639363218],[-114.023746113144,46.8944973627341],[-114.015489356756,46.894488684387],[-114.015493043258,46.8924791080723],[-114.007990480006,46.8924862950476],[-114.006071533578,46.8924723332953],[-114.006116784681,46.8822739676449],[-114.017762027146,46.8881500000016],[-114.018250251529,46.8881508975141],[-114.018557190273,46.8883294017474],[-114.033229289558,46.8957209790726],[-114.033858912755,46.8955910624652],[-114.034147607743,46.8959012862605],[-114.03478368774,46.8964514042653],[-114.03533291299,46.8968259843247],[-114.035917370961,46.8971517915021],[-114.037313044439,46.8978542621002],[-114.037486380472,46.8978546365809],[-114.04008123656,46.8992488398523],[-114.039671690991,46.9005300638568],[-114.039530383405,46.9038234795091],[-114.039407497832,46.9046216269213],[-114.039203145333,46.9053139903494],[-114.038725765513,46.9063326548871],[-114.0381239417,46.9073277624553],[-114.036872486836,46.9089476207452],[-114.036687299766,46.9091284183228],[-114.035941199445,46.9101874994402],[-114.03536594979,46.9111491780337],[-114.03477553285,46.9124387463547],[-114.032814108342,46.9111825985985],[-114.030270543843,46.9098199652317],[-114.02621028308,46.9069531989882],[-114.029957734101,46.9069539194418],[-114.029736787222,46.9040998378392],[-114.032904124513,46.9040997048546],[-114.032904140895,46.9044608164742],[-114.034304148273,46.9044609073139],[-114.034165574189,46.9041302718883],[-114.034414321607,46.9041292045399]],[[-114.03517437342,46.9069545327829],[-114.034849932523,46.9058657087122],[-114.033250134232,46.9058646619337],[-114.033383830994,46.9069543290939],[-114.03517437342,46.9069545327829]]]},"properties":{"OBJECTID":424,"FeatureName":"Reserve / Scott 2015","created_user":"svcgisdatainterop","created_date":"Tue, 23 Sep 2025 09:37:33 GMT","last_edited_user":"svcgisdatainterop","last_edited_date":"Tue, 23 Sep 2025 09:37:33 GMT","GlobalID":"6af747ef-b940-4cb4-b778-2afe31a87017","MSO_ID":"AD-URD-10000","MSOID1":"AD","MSOID2":"URD","MSOID3":10000},"id":424},
{"type":"Feature","geometry":{"type":"Polygon","coordinates":[[[-113.987992636364,46.8669839712964],[-113.987418485076,46.8669802042458],[-113.987436565392,46.8688706322688],[-113.98739174379,46.8690687551448],[-113.987000769849,46.8696847525],[-113.9868576707,46.8699102710329],[-113.987151053792,46.8699979037062],[-113.985952459676,46.8718807046211],[-113.985032669585,46.8732890322718],[-113.98390805164,46.8724606755915],[-113.980769727998,46.8702466792927],[-113.978518157529,46.8686131135258],[-113.977555194559,46.8679551427807],[-113.975518184592,46.8666464965444],[-113.974554809292,46.8660723276182],[-113.973476257573,46.8655436940292],[-113.974744827764,46.8635420691014],[-113.975269091796,46.8626871024224],[-113.977111268933,46.8633611211714],[-113.981466283101,46.8650245717783],[-113.981474324684,46.8651480008422],[-113.98247775854,46.8651428072483],[-113.982482275023,46.8655540942787],[-113.983881496394,46.8655468375863],[-113.983886779149,46.8660033485621],[-113.984168056404,46.8661211980448],[-113.987004484126,46.8661064396265],[-113.987003697686,46.8658870857678],[-113.988563817152,46.8658789256076],[-113.98832611029,46.8662096615968],[-113.988108833005,46.8663025060998],[-113.987992636364,46.8669839712964]]]},"properties":{"OBJECTID":425,"FeatureName":"Hellgate 2014","created_user":"svcgisdatainterop","created_date":"Tue, 23 Sep 2025 09:37:33 GMT","last_edited_user":"svcgisdatainterop","last_edited_date":"Tue, 23 Sep 2025 09:37:33 GMT","GlobalID":"9b04250f-4563-475f-ac36-b7344510a3e5","MSO_ID":"AD-URD-10001","MSOID1":"AD","MSOID2":"URD","MSOID3":10001},"id":425},
{"type":"Feature","geometry":{"type":"Polygon","coordinates":[[[-114.022672818991,46.8451573323525],[-114.022806028686,46.8449437057585],[-114.023346897913,46.8445765020799],[-114.023346470909,46.8433214910258],[-114.023861576611,46.8433224405775],[-114.023861275292,46.8424627790011],[-114.026228004049,46.8424745518256],[-114.026232314496,46.8416311244336],[-114.026144461075,46.8415162521322],[-114.026149801409,46.8405499521978],[-114.028769888518,46.8405548263877],[-114.028776730283,46.8389095106979],[-114.029060974658,46.8387039063136],[-114.031514500031,46.8387086584152],[-114.031514233667,46.8364613408693],[-114.034068085081,46.8365290483904],[-114.035456599939,46.8365314321796],[-114.035499118715,46.8354861118626],[-114.035170642316,46.8343375042181],[-114.03544691239,46.834151965696],[-114.03969866163,46.8341362557455],[-114.039719759234,46.8379694129729],[-114.039775578345,46.8382798927158],[-114.039782238763,46.8406672152165],[-114.037034934638,46.8406751507908],[-114.037032377816,46.8441538543384],[-114.039793440098,46.8441459191056],[-114.039793940403,46.8443104939981],[-114.037031831903,46.8443184173402],[-114.037015877376,46.8488497323455],[-114.036903838616,46.8488489795008],[-114.036889472887,46.8498248969237],[-114.036536312395,46.8497834667772],[-114.035896785449,46.8498241093959],[-114.028935207552,46.8498185131183],[-114.028289273713,46.8498396621766],[-114.028299671841,46.8505799555969],[-114.028371655491,46.8507228842986],[-114.028379036023,46.8523680821524],[-114.028323814249,46.8525325744361],[-114.02646529044,46.8525309990162],[-114.026451422655,46.8566489576792],[-114.018373287748,46.8566043593832],[-114.018275866131,46.8563470962586],[-114.017897969803,46.8561024330627],[-114.016635934993,46.8570197173767],[-114.015531335028,46.8563045295707],[-114.014269253758,46.8572217877538],[-114.013164681066,46.8565065761727],[-114.011902554649,46.857423808172],[-114.010740367544,46.8566546896477],[-114.009478196262,46.8575718948313],[-114.006958388089,46.8559400845967],[-114.007210970803,46.8559398519355],[-114.008085816112,46.8553309580366],[-114.007757630092,46.8550344873333],[-114.007754083539,46.85323025767],[-114.009491705035,46.8532259343956],[-114.009485270885,46.850540679845],[-114.011225823314,46.8505389038499],[-114.011221875371,46.8487272762822],[-114.017938183831,46.8487470822578],[-114.018117335362,46.8486278023228],[-114.018108500821,46.845240605131],[-114.020174655719,46.8452263108701],[-114.020174004832,46.8451526636762],[-114.022672818991,46.8451573323525]]]},"properties":{"OBJECTID":426,"FeatureName":"URD III","created_user":"svcgisdatainterop","created_date":"Tue, 23 Sep 2025 09:37:33 GMT","last_edited_user":"svcgisdatainterop","last_edited_date":"Tue, 23 Sep 2025 09:37:33 GMT","GlobalID":"ebeb2a02-575c-4004-979a-aa43857ce81f","MSO_ID":"AD-URD-10003","MSOID1":"AD","MSOID2":"URD","MSOID3":10003},"id":426}
]}