{"type":"FeatureCollection","crs":{"type":"name","properties":{"name":"EPSG:4326"}},"features":[{"type":"Feature","id":421,"geometry":{"type":"Polygon","coordinates":[[[-114.018267121541,46.883948882218],[-114.018269005681,46.8835144945134],[-114.01827078868,46.8831031984216],[-114.018271320297,46.8828838403297],[-114.018272866173,46.8825273840226],[-114.018273104568,46.8824725441506],[-114.018274649109,46.8821160878754],[-114.018275181935,46.8818967288036],[-114.018276727757,46.8815402724486],[-114.018276964909,46.8814854335197],[-114.018278510706,46.8811289771448],[-114.018279042197,46.8809096180955],[-114.018280587964,46.8805531616927],[-114.018280826342,46.8804983218059],[-114.018282370775,46.8801418654352],[-114.018282903627,46.8799225072032],[-114.0182846864,46.8795112109106],[-114.018286232089,46.8791547544403],[-114.018286763604,46.8789353962309],[-114.018288309263,46.8785789397329],[-114.017088684559,46.878575727072],[-114.016768786218,46.8785748690145],[-114.015569150707,46.8785739155111],[-114.015249249888,46.8785733201645],[-114.014049621918,46.8785710800852],[-114.013729721133,46.8785704804831],[-114.012530091904,46.8785682235989],[-114.012210191153,46.8785676197413],[-114.011010563438,46.8785653477456],[-114.010690662721,46.8785647396325],[-114.00949103375,46.8785624508318],[-114.009171133068,46.8785618384632],[-114.007971505612,46.8785595345511],[-114.007651603654,46.8785589179788],[-114.006451976254,46.8785565972099],[-114.006132075641,46.8785559763303],[-114.004932448448,46.8785536405018],[-114.00461254656,46.8785530154185],[-114.003412919424,46.8785506627333],[-114.002613787835,46.8785490775457],[-114.002889128682,46.8781383658908],[-114.004102077395,46.8762429603347],[-114.004721489887,46.8752623339357],[-114.004932275953,46.8749364970203],[-114.005429316194,46.874278144183],[-114.005555387978,46.8740770575811],[-114.005950804397,46.8734460413306],[-114.006174295402,46.8730893789165],[-114.006652645783,46.8723259823113],[-114.007154188122,46.8715255471411],[-114.007412044592,46.8711140110339],[-114.007983632495,46.8702098950696],[-114.007985560342,46.8694688370488],[-114.007385848035,46.8694681014807],[-114.007386850401,46.8690842251],[-114.007387423704,46.8688648667522],[-114.007587326794,46.8688651113383],[-114.007787228652,46.8688653565249],[-114.007987130436,46.8688656004631],[-114.007988057872,46.8685091427989],[-114.007988201509,46.8684543024949],[-114.007989128931,46.8680978448114],[-114.007989699688,46.8678784855334],[-114.00799062709,46.8675220278229],[-114.007990769487,46.8674671884621],[-114.0079916968,46.8671107298337],[-114.007992267612,46.8668913714258],[-114.007993196215,46.8665349127186],[-114.007993338606,46.8664800733507],[-114.008313168108,46.8664804635945],[-114.009512527067,46.8664819181975],[-114.00951344434,46.8661254604094],[-114.009514008852,46.865906101067],[-114.009833834948,46.8659064870521],[-114.011033181133,46.8659079256851],[-114.01135300725,46.8659083074157],[-114.011552898122,46.8659085460112],[-114.012109814319,46.8659092072477],[-114.012552354826,46.8659097300425],[-114.012872179654,46.8659101075704],[-114.012871628779,46.8661294660304],[-114.012870733864,46.8664859247437],[-114.014070094376,46.866487331431],[-114.014389923963,46.8664877046565],[-114.015589283244,46.8664890954409],[-114.015909112777,46.8664894635132],[-114.017108472136,46.866490838343],[-114.017428301766,46.8664912030593],[-114.018427769512,46.866492336569],[-114.018725843929,46.8664873943429],[-114.020324986158,46.8664904893406],[-114.020644814102,46.8664911056739],[-114.022243956626,46.8664941746993],[-114.022246301145,46.8659183592736],[-114.022566125704,46.8659189702262],[-114.02448507722,46.8659226178748],[-114.024482756622,46.8664984324473],[-114.024481100573,46.8669097291263],[-114.024315728121,46.8670464895019],[-114.024315658624,46.8670794199436],[-114.024316479158,46.8678142773699],[-114.024316511089,46.8678959479708],[-114.024356870472,46.8678959701696],[-114.024356665697,46.8679309597841],[-114.024350190954,46.8695499200702],[-114.024269687405,46.8696841255913],[-114.024266481669,46.8704794737449],[-114.024467187012,46.8704799790768],[-114.02446558263,46.8708364354996],[-114.024305654841,46.8708361927846],[-114.024304666759,46.8710555505083],[-114.024144212462,46.871054886645],[-114.024143133236,46.8714113446646],[-114.024142886394,46.8714661843033],[-114.02414127852,46.8718226407268],[-114.024141044699,46.8718747191949],[-114.024300975146,46.8718749414211],[-114.024301086587,46.8718502570312],[-114.024461017287,46.8718504672998],[-114.024459717247,46.8720432000788],[-114.024459257343,46.8721912665973],[-114.024458527169,46.87242691202],[-114.024457796025,46.872662530426],[-114.024457336187,46.8728105978309],[-114.024416201009,46.8730024462998],[-114.024415297199,46.8732489752874],[-114.024414581303,46.8734135428061],[-114.024413031791,46.8737974086623],[-114.024413490822,46.8739523204909],[-114.024132517199,46.8739536171898],[-114.023972576257,46.8739543415616],[-114.023812636296,46.8739550773911],[-114.023652695118,46.8739557986192],[-114.023492754011,46.873956520522],[-114.023332812825,46.8739572413023],[-114.023172880882,46.8739579623935],[-114.023012931825,46.8739586830375],[-114.022852990853,46.8739594058416],[-114.022693049725,46.8739601266245],[-114.022532858945,46.8739608489652],[-114.022532877457,46.873985758968],[-114.022532969008,46.8741146330121],[-114.0225344983,46.8741935735947],[-114.022569591712,46.8742820324553],[-114.022565784817,46.8745152001668],[-114.022563390929,46.874661862684],[-114.022560772499,46.8748222697132],[-114.023182668752,46.8748269891762],[-114.023176625952,46.8752410022538],[-114.023053247156,46.8752404154422],[-114.023044979243,46.8759224734548],[-114.022542867904,46.8759189957502],[-114.022539006667,46.876155545588],[-114.021650517857,46.8761536807408],[-114.021593280788,46.8761535607569],[-114.021188269901,46.876155471922],[-114.020262992569,46.8766100766573],[-114.020261901597,46.8773112298869],[-114.019977146455,46.8776028401634],[-114.019569300677,46.877843043306],[-114.019569908098,46.877982058284],[-114.019666580793,46.8780195069381],[-114.019761410254,46.8780591093782],[-114.019854294345,46.8781008236746],[-114.019945133321,46.8781446050981],[-114.020033828596,46.8781904070706],[-114.020120283824,46.8782381784178],[-114.020204409286,46.878287868604],[-114.020286111181,46.878339425453],[-114.020365301802,46.8783927911367],[-114.020441898912,46.8784479103159],[-114.020515815886,46.8785047224154],[-114.020586976581,46.8785631664447],[-114.020655303393,46.8786231796682],[-114.020720721259,46.8786846983476],[-114.020558857286,46.8787652041533],[-114.020611399207,46.8788180810749],[-114.020661658896,46.8788719905493],[-114.020709594333,46.8789268864605],[-114.021188879317,46.8795286431102],[-114.021415074783,46.8798126328597],[-114.02146798495,46.8798790609588],[-114.021539718889,46.8799691236879],[-114.021620580525,46.8800710068468],[-114.021722542372,46.880199473606],[-114.021767324301,46.8802558969813],[-114.02186710532,46.8803816163869],[-114.02196688673,46.8805073348047],[-114.021994730637,46.880542416337],[-114.022125381533,46.8807070289644],[-114.022166451028,46.880758772271],[-114.022266232529,46.8808844904729],[-114.022366015808,46.8810102085334],[-114.022397574943,46.8810499707119],[-114.022432416199,46.8810938672843],[-114.022465799554,46.8811359265047],[-114.022565583843,46.8812616452853],[-114.022665368524,46.881387363078],[-114.02270461353,46.8814368082822],[-114.023822106387,46.8828446833745],[-114.024153972269,46.8832644176995],[-114.02267432241,46.8839487713242],[-114.018267121541,46.883948882218]]]},"properties":{"OBJECTID":421,"FeatureName":"URD II","created_user":"svcgisdatainterop","created_date":"Tue, 23 Sep 2025 09:37:33 GMT","last_edited_user":"svcgisdatainterop","last_edited_date":"Tue, 23 Sep 2025 09:37:33 GMT","GlobalID":"8799f33d-7c49-40ce-a557-efaf771c47a9","MSO_ID":"AD-URD-10004","MSOID1":"AD","MSOID2":"URD","MSOID3":10004}},{"type":"Feature","id":422,"geometry":{"type":"Polygon","coordinates":[[[-113.996723350906,46.8731534242776],[-113.996880743054,46.872904189237],[-113.997087227264,46.8725770907535],[-113.99711901295,46.872526737648],[-113.997325495493,46.872199637767],[-113.997498385179,46.8719550378311],[-113.997791749642,46.872042754996],[-113.998453880691,46.8722407320939],[-113.998120343064,46.8720064188971],[-113.998375917673,46.8718933083563],[-113.998746960889,46.8716477080372],[-113.998820251045,46.8716011568942],[-113.998767891087,46.8715641332397],[-113.999416266117,46.8711344670592],[-113.999691820172,46.8709527385486],[-114.000338555267,46.8713825658594],[-114.001823650241,46.8730093608116],[-114.001922442719,46.8731231399115],[-114.002026725048,46.873234591737],[-114.002136381562,46.8733435910121],[-114.002251287724,46.8734500164171],[-114.002371315284,46.8735537494827],[-114.002496332136,46.8736546727935],[-114.002626197525,46.8737526755858],[-114.00276076676,46.8738476472513],[-114.002899890283,46.8739394818816],[-114.003043409586,46.8740280766262],[-114.003191167844,46.8741133330761],[-114.003342997973,46.8741951559322],[-114.0034987318,46.8742734526435],[-114.003658193814,46.87434813726],[-114.003821207343,46.8744191256807],[-114.003987588223,46.8744863386094],[-114.004157153903,46.8745497002927],[-114.00432971187,46.8746091416822],[-114.004505069685,46.8746645946292],[-114.00468303289,46.8747159982778],[-114.004863401932,46.8747632937775],[-114.005020841557,46.8748191901915],[-114.004932275953,46.8749364970203],[-114.004721489887,46.8752623339357],[-114.004573043254,46.8754964148809],[-113.996723350906,46.8731534242776]]]},"properties":{"OBJECTID":422,"FeatureName":"Riverfront Triangle","created_user":"svcgisdatainterop","created_date":"Tue, 23 Sep 2025 09:37:33 GMT","last_edited_user":"svcgisdatainterop","last_edited_date":"Tue, 23 Sep 2025 09:37:33 GMT","GlobalID":"1d46694a-d4d7-400f-9d9c-4d3ef4f44a17","MSO_ID":"AD-URD-10005","MSOID1":"AD","MSOID2":"URD","MSOID3":10005}},{"type":"Feature","id":423,"geometry":{"type":"Polygon","coordinates":[[[-113.994742009043,46.8714271503678],[-113.994379016344,46.8713188433886],[-113.993950287614,46.8711909209878],[-113.993895289518,46.8711745106525],[-113.993290308677,46.8709939944693],[-113.992996986317,46.8709064710454],[-113.991781543757,46.8705437851504],[-113.991478650808,46.8704567772761],[-113.990758024838,46.8703663467827],[-113.990515602912,46.8703359245801],[-113.990275748004,46.8703058236708],[-113.98995185333,46.870266152777],[-113.988072416169,46.8700359353027],[-113.986875268477,46.8698892757972],[-113.987000769849,46.8696847525],[-113.98739174379,46.8690687551448],[-113.987436565392,46.8688706322688],[-113.987417867389,46.8671820239255],[-113.987418485076,46.8669802042458],[-113.987992636364,46.8669839712964],[-113.988339898149,46.8669862485996],[-113.98896994129,46.8669706315367],[-113.98973275268,46.8669490653909],[-113.990494137631,46.8669106441747],[-113.991206361306,46.8668741524138],[-113.991956178079,46.8668446298619],[-113.992374096761,46.8668281729899],[-113.992781139029,46.8668290499621],[-113.993251053288,46.8668443498431],[-113.993885690691,46.8669123268308],[-113.994411133316,46.8670015031795],[-113.994956610289,46.8671828626165],[-113.995582913218,46.867445551734],[-113.996225038069,46.8677498803844],[-113.997294698364,46.868299367226],[-113.998180836804,46.8691603565818],[-113.99887245459,46.8700543659096],[-113.999251963228,46.8704620112318],[-113.999414304126,46.8706331013512],[-113.999586829166,46.8707784348108],[-113.999733151086,46.87092538756],[-113.998767887307,46.8715641351919],[-113.998820251045,46.8716011568942],[-113.998748383465,46.8716487130864],[-113.99849956455,46.8714727915754],[-113.998253982286,46.871299155462],[-113.998174005178,46.8712426079285],[-113.998089500523,46.8711828597795],[-113.998005759088,46.8711236512744],[-113.997929352909,46.8710696269305],[-113.997865976943,46.8710248176323],[-113.997773181806,46.87095920597],[-113.997670954066,46.8709160950651],[-113.997642024994,46.8709349062563],[-113.997514389573,46.87084754994],[-113.997380134222,46.8707556617331],[-113.997304717083,46.8707040439752],[-113.997301397818,46.8707063827587],[-113.997175173742,46.870602286078],[-113.996961283911,46.8704258790463],[-113.996759158869,46.8702591848251],[-113.996659448185,46.8702100343647],[-113.996561217078,46.8701628188704],[-113.996413870123,46.8700919959451],[-113.996266524793,46.8700211718788],[-113.996317089905,46.8699717890867],[-113.996128423354,46.8698697142119],[-113.995774098138,46.86967801001],[-113.995517806293,46.8701275037878],[-113.995332032608,46.8704758177296],[-113.995168544048,46.8707411296195],[-113.995140519223,46.8707866079761],[-113.995033272153,46.8709606487987],[-113.994977737029,46.8710507701288],[-113.994899318406,46.8711780260066],[-113.994742009043,46.8714271503678]]]},"properties":{"OBJECTID":423,"FeatureName":"Front Street","created_user":"svcgisdatainterop","created_date":"Tue, 23 Sep 2025 09:37:33 GMT","last_edited_user":"svcgisdatainterop","last_edited_date":"Tue, 23 Sep 2025 09:37:33 GMT","GlobalID":"b4f69d0b-35d7-433d-bbf0-3bece85b9441","MSO_ID":"AD-URD-10002","MSOID1":"AD","MSOID2":"URD","MSOID3":10002}},{"type":"Feature","id":424,"geometry":{"type":"Polygon","coordinates":[[[-114.034414321607,46.9041292045399],[-114.034399364204,46.9040785163963],[-114.034398617723,46.9037079252206],[-114.034397871177,46.9033373331267],[-114.0343689356,46.9029673279043],[-114.034340001657,46.9025973217045],[-114.034317629971,46.9023117319039],[-114.034295258448,46.9020261411889],[-114.034594506134,46.9020216407622],[-114.034834937164,46.9017975188042],[-114.035075366186,46.9015733963333],[-114.034674021434,46.9013706687926],[-114.034272679636,46.9011679389379],[-114.034157876799,46.9007032932516],[-114.034158509834,46.9003791005573],[-114.034159141626,46.9000549087988],[-114.034159774645,46.8997307160748],[-114.03457241479,46.8997293383285],[-114.034985054838,46.8997279581936],[-114.035397696252,46.8997265774152],[-114.035810336334,46.8997251951987],[-114.036222976318,46.8997238105937],[-114.036635616357,46.8997224253972],[-114.03704825761,46.89972103776],[-114.037460897606,46.8997196495834],[-114.037460960563,46.8994176217383],[-114.037483326067,46.8980661970719],[-114.033483032722,46.8960530415138],[-114.031346809499,46.8949810808805],[-114.031171717011,46.8948932150623],[-114.027772011503,46.8931834681304],[-114.023817362177,46.8911829903322],[-114.023758710648,46.8924639363218],[-114.023758367101,46.8925144385016],[-114.023746502534,46.8944342744816],[-114.023746113144,46.8944973627341],[-114.023344822042,46.8944969017213],[-114.02294353087,46.8944964384005],[-114.022542239781,46.8944959745689],[-114.022140948624,46.8944955084294],[-114.021739657549,46.8944950417792],[-114.021338366405,46.894494572821],[-114.020937076655,46.8944941033002],[-114.020535785526,46.8944936315233],[-114.020134494479,46.8944931592357],[-114.019733203363,46.8944926846402],[-114.019331912331,46.8944922095339],[-114.018930621229,46.8944917321196],[-114.018529330211,46.8944912541946],[-114.0180950488,46.8944908916237],[-114.017660766161,46.8944905283527],[-114.017226484762,46.8944901624805],[-114.016792202134,46.8944897959083],[-114.016357920747,46.8944894267349],[-114.015923638131,46.8944890568615],[-114.015489356756,46.894488684387],[-114.015489883582,46.8942016018266],[-114.015490410477,46.8939145201534],[-114.015490937292,46.8936274375701],[-114.01549146279,46.893340355027],[-114.015491989593,46.8930532724208],[-114.015492516466,46.8927661907015],[-114.015493043258,46.8924791080723],[-114.015076234816,46.8924795201501],[-114.014659425057,46.8924799307593],[-114.014242616602,46.8924803397961],[-114.01382580683,46.8924807473643],[-114.013408998438,46.8924811542587],[-114.012992188653,46.8924815587858],[-114.012575380173,46.8924819617406],[-114.012158570376,46.8924823632267],[-114.011741761883,46.8924827631405],[-114.011324953384,46.8924831615338],[-114.010908143569,46.8924835584583],[-114.010491335058,46.8924839538106],[-114.01007452523,46.8924843476942],[-114.009657716782,46.892484740904],[-114.009240906942,46.8924851317465],[-114.008824098406,46.8924855210168],[-114.008407288554,46.8924859088183],[-114.007990480006,46.8924862950476],[-114.007510748048,46.8924828836263],[-114.007031010316,46.8924793694454],[-114.00655127126,46.8924758524034],[-114.006071533578,46.8924723332953],[-114.00607478461,46.8922640865797],[-114.006076309737,46.891933874216],[-114.006077836081,46.8916036608867],[-114.006079558134,46.8913020448238],[-114.006081243754,46.8908948626584],[-114.006082929272,46.8904876795712],[-114.006082749411,46.8903231591638],[-114.006084085165,46.8900304081085],[-114.006085422216,46.8897376569896],[-114.006086757942,46.8894449059106],[-114.006087293292,46.8892255471845],[-114.006090309182,46.888758592362],[-114.00609016433,46.8886220399454],[-114.00609073431,46.8884846668212],[-114.006092902644,46.8883472846783],[-114.006091838299,46.8881279349869],[-114.006093172143,46.8878347709949],[-114.006094505973,46.887541606991],[-114.006095839713,46.8872484420768],[-114.006096380224,46.8870306482044],[-114.006098259542,46.8866190278226],[-114.006098687244,46.8865633660042],[-114.006100389946,46.8861520699214],[-114.006100925208,46.8859327110958],[-114.006102439772,46.8855214142907],[-114.006103231792,46.8854657534044],[-114.006104934424,46.8850544572596],[-114.006104481707,46.8848355945088],[-114.006107065715,46.8844238019198],[-114.006109439368,46.8840673470127],[-114.00611002067,46.8838479890088],[-114.006111002921,46.8836329345915],[-114.006112447714,46.8832931926797],[-114.006113893875,46.882953451599],[-114.006115339943,46.882613709604],[-114.006116784681,46.8822739676449],[-114.006440230222,46.8824372073944],[-114.006763676343,46.8826004453777],[-114.007087124506,46.8827636833401],[-114.00741057587,46.8829269194327],[-114.00773402789,46.8830901546576],[-114.008057481952,46.8832533898617],[-114.008380937904,46.8834166232477],[-114.008704397134,46.8835798556625],[-114.009027857094,46.8837430881081],[-114.009351318946,46.8839063187356],[-114.009674782764,46.8840695484437],[-114.009998249934,46.884232778079],[-114.010321717685,46.8843960059479],[-114.010645187401,46.8845592328974],[-114.010968660471,46.8847224597741],[-114.011292134121,46.8848856848845],[-114.011615609812,46.8850489099739],[-114.011939087395,46.8852121332451],[-114.012262568254,46.885375355545],[-114.012586049845,46.8855385778756],[-114.012909533327,46.8857017983881],[-114.013233018775,46.8858650179809],[-114.013556507575,46.8860282375009],[-114.013879996956,46.8861914552545],[-114.014203488304,46.8863546720884],[-114.014526983004,46.8865178888495],[-114.014850478284,46.8866811038441],[-114.015173975531,46.886844317919],[-114.01549747482,46.887007531973],[-114.01582097731,46.8871707441567],[-114.016144480532,46.8873339563712],[-114.016467985644,46.8874971667674],[-114.016791492724,46.8876603762438],[-114.017115003156,46.8878235856473],[-114.017438514168,46.8879867932843],[-114.017762027146,46.8881500000016],[-114.018250251529,46.8881508975141],[-114.018557190273,46.8883294017474],[-114.018892397838,46.8884984363581],[-114.019227608899,46.888667470828],[-114.019562820761,46.8888365043624],[-114.023882391611,46.8910115743577],[-114.024235194372,46.8911893619126],[-114.024587998082,46.8913671475271],[-114.024940805516,46.8915449328945],[-114.025293613974,46.89172271722],[-114.025646426005,46.8919004995011],[-114.025999239136,46.8920782816389],[-114.026352055915,46.8922560626309],[-114.026704873643,46.8924338416825],[-114.027030973666,46.8925981793321],[-114.027357074298,46.8927625152006],[-114.027683176927,46.8929268501346],[-114.028009282938,46.8930911849808],[-114.028335389559,46.8932555180458],[-114.028661499486,46.8934198501244],[-114.028987610175,46.893584182219],[-114.029313722784,46.8937485124805],[-114.029640009805,46.8939128899615],[-114.029966297512,46.894077266559],[-114.030292588452,46.8942416412703],[-114.030618880155,46.8944060159968],[-114.030945173856,46.8945703897877],[-114.031271470865,46.8947347625909],[-114.031597768562,46.8948991345107],[-114.031924069567,46.8950635054427],[-114.032250371259,46.8952278754913],[-114.032576674874,46.8953922437056],[-114.032902981873,46.8955566118309],[-114.033229289558,46.8957209790726],[-114.033858912755,46.8955910624652],[-114.034147607743,46.8959012862605],[-114.034467407596,46.8961968292358],[-114.03478368774,46.8964514042653],[-114.035032115147,46.8966292986609],[-114.03533291299,46.8968259843247],[-114.035917370961,46.8971517915021],[-114.036360724383,46.8973749258823],[-114.036804080256,46.897598059486],[-114.037313044439,46.8978542621002],[-114.037486380472,46.8978546365809],[-114.037810729274,46.8980289150351],[-114.038135081493,46.8982031925123],[-114.038459435894,46.898377469963],[-114.038783791014,46.8985517456424],[-114.03910814955,46.8987260203446],[-114.039432508958,46.8989002950727],[-114.039756871706,46.899074567925],[-114.04008123656,46.8992488398523],[-114.039978852019,46.8995691462374],[-114.039876466257,46.8998894525163],[-114.039774079197,46.9002097577904],[-114.039671690991,46.9005300638568],[-114.039660112797,46.9008077175908],[-114.039648535794,46.9010853712606],[-114.039636958747,46.9013630258168],[-114.039625380193,46.9016406795146],[-114.03961380283,46.9019183331481],[-114.039602225348,46.9021959867694],[-114.039590646435,46.9024736404308],[-114.039579068789,46.9027512949265],[-114.039567490947,46.9030289485115],[-114.039555911675,46.9033066021365],[-114.039544333594,46.9035842556972],[-114.03965899151,46.9037419462937],[-114.039530383405,46.9038234795091],[-114.039508445262,46.9040419093147],[-114.039477817366,46.9042598633096],[-114.039438521013,46.904477174743],[-114.039438463611,46.9045674316345],[-114.039407497832,46.9046216269213],[-114.039305322935,46.9049678091128],[-114.039203145333,46.9053139903494],[-114.039168473987,46.9054072482162],[-114.039130927778,46.9055029572982],[-114.039110610237,46.9055530965625],[-114.039110528132,46.9055979548337],[-114.039091961118,46.9055979411618],[-114.03903124941,46.9057375176261],[-114.03896678621,46.9058763407116],[-114.0388909041,46.9060295878892],[-114.038810501398,46.9061817470934],[-114.038725765513,46.9063326548871],[-114.038599004278,46.9065426989028],[-114.038463738525,46.9067500866522],[-114.038319937505,46.9069547976865],[-114.038450794427,46.906954806747],[-114.038299027083,46.9071599056494],[-114.038234316798,46.9072439682292],[-114.0381239417,46.9073277624553],[-114.037918982472,46.9075936064332],[-114.037714022602,46.9078594508799],[-114.037650692478,46.907941887625],[-114.037456144129,46.9081933214024],[-114.037261593957,46.9084447548396],[-114.037067041963,46.9086961879364],[-114.036872486836,46.9089476207452],[-114.036687299766,46.9091284183228],[-114.03653780727,46.9093250860289],[-114.036367289326,46.9095579419887],[-114.03627988384,46.9096812639271],[-114.036110848165,46.9099291161164],[-114.036011547994,46.9100793530517],[-114.035941199445,46.9101874994402],[-114.035809786898,46.9103977855567],[-114.035682956957,46.9106094085922],[-114.035549114623,46.9108427695925],[-114.035420812872,46.9110775953471],[-114.035381227252,46.9111524461607],[-114.03536594979,46.9111491780337],[-114.035218348543,46.9114715704094],[-114.035070744211,46.9117939626316],[-114.034923139417,46.912116354596],[-114.03477553285,46.9124387463547],[-114.03423468075,46.9120982131184],[-114.033928124934,46.9118974101769],[-114.033621571413,46.9116966064073],[-114.033315021496,46.9114958017576],[-114.032814108342,46.9111825985985],[-114.032496155834,46.9110122719698],[-114.032178205419,46.910841945351],[-114.031860255711,46.9106716178956],[-114.031542309256,46.910501288601],[-114.031224364895,46.9103309593162],[-114.030906422552,46.9101606291428],[-114.030588482151,46.9099902971823],[-114.030270543843,46.9098199652317],[-114.029980509981,46.9096152009423],[-114.029690479642,46.9094104358588],[-114.029400451517,46.9092056700333],[-114.029110424293,46.9090009035178],[-114.028820400668,46.9087961371069],[-114.028530379181,46.9085913690555],[-114.028240358595,46.908386600314],[-114.027950341533,46.9081818307786],[-114.027660326684,46.9079770605013],[-114.027370312736,46.907772289534],[-114.027080302312,46.9075675177728],[-114.026790294176,46.9073627461682],[-114.026500288178,46.9071579729232],[-114.02621028308,46.9069531989882],[-114.026617082903,46.9069532702143],[-114.027023882727,46.9069533399924],[-114.027430682552,46.9069534083225],[-114.027837482378,46.9069534752046],[-114.028244280894,46.9069535406908],[-114.028651080646,46.9069536037785],[-114.029057880475,46.9069536663167],[-114.029464680305,46.906953727407],[-114.029871480136,46.9069537870493],[-114.029957734101,46.9069539194418],[-114.029736787222,46.9040998378392],[-114.031825859762,46.9040997292715],[-114.03236499152,46.9040997188101],[-114.032904124513,46.9040997048546],[-114.032904140895,46.9044608164742],[-114.033077768692,46.9044607712713],[-114.033486562347,46.9044608183632],[-114.033895354616,46.9044608631464],[-114.034304148273,46.9044609073139],[-114.034165574189,46.9041302718883],[-114.034414321607,46.9041292045399]],[[-114.03517437342,46.9069545327829],[-114.034849932523,46.9058657087122],[-114.033250134232,46.9058646619337],[-114.033383830994,46.9069543290939],[-114.03517437342,46.9069545327829]]]},"properties":{"OBJECTID":424,"FeatureName":"Reserve / Scott 2015","created_user":"svcgisdatainterop","created_date":"Tue, 23 Sep 2025 09:37:33 GMT","last_edited_user":"svcgisdatainterop","last_edited_date":"Tue, 23 Sep 2025 09:37:33 GMT","GlobalID":"6af747ef-b940-4cb4-b778-2afe31a87017","MSO_ID":"AD-URD-10000","MSOID1":"AD","MSOID2":"URD","MSOID3":10000}},{"type":"Feature","id":425,"geometry":{"type":"Polygon","coordinates":[[[-113.985032669585,46.8732890322718],[-113.98390805164,46.8724606755915],[-113.980769727998,46.8702466792927],[-113.979566673976,46.8693875407115],[-113.978518157529,46.8686131135258],[-113.977555194559,46.8679551427807],[-113.97656985809,46.8673275866435],[-113.975518184592,46.8666464965444],[-113.974554809292,46.8660723276182],[-113.973712836864,46.8656432750942],[-113.973476257573,46.8655436940292],[-113.973933748385,46.8647973708838],[-113.974744827764,46.8635420691014],[-113.975269091796,46.8626871024224],[-113.977111268933,46.8633611211714],[-113.981466283101,46.8650245717783],[-113.981474324684,46.8651480008422],[-113.98247775854,46.8651428072483],[-113.982482275023,46.8655540942787],[-113.983881496394,46.8655468375863],[-113.983886779149,46.8660033485621],[-113.984168056404,46.8661211980448],[-113.98444752999,46.8661197685517],[-113.985067173132,46.8661165046146],[-113.985766839592,46.8661128854588],[-113.986786314899,46.866107592793],[-113.987004484126,46.8661064396265],[-113.987003697686,46.8658870857678],[-113.987995048032,46.8658818966723],[-113.988563817152,46.8658789256076],[-113.988419414984,46.8659893453224],[-113.988345409387,46.8660993625872],[-113.98832611029,46.8662096615968],[-113.988108833005,46.8663025060998],[-113.987992636364,46.8669839712964],[-113.987418485076,46.8669802042458],[-113.987417867389,46.8671820239255],[-113.987436565392,46.8688706322688],[-113.98739174379,46.8690687551448],[-113.987000769849,46.8696847525],[-113.986874452452,46.8698838246044],[-113.9868576707,46.8699102710329],[-113.987151053792,46.8699979037062],[-113.986992960366,46.8702469117592],[-113.986826831361,46.870508552664],[-113.986770940893,46.8705965918422],[-113.986739036425,46.8706469130575],[-113.986628129781,46.8708215234039],[-113.986517047245,46.8709965227885],[-113.986353660115,46.8712530404989],[-113.986145219397,46.8715792169057],[-113.986113003068,46.8716294383631],[-113.986064066721,46.8717061018464],[-113.985997684119,46.8718099571307],[-113.985952459676,46.8718807046211],[-113.985032669585,46.8732890322718]]]},"properties":{"OBJECTID":425,"FeatureName":"Hellgate 2014","created_user":"svcgisdatainterop","created_date":"Tue, 23 Sep 2025 09:37:33 GMT","last_edited_user":"svcgisdatainterop","last_edited_date":"Tue, 23 Sep 2025 09:37:33 GMT","GlobalID":"9b04250f-4563-475f-ac36-b7344510a3e5","MSO_ID":"AD-URD-10001","MSOID1":"AD","MSOID2":"URD","MSOID3":10001}},{"type":"Feature","id":426,"geometry":{"type":"Polygon","coordinates":[[[-114.022672818991,46.8451573323525],[-114.022686134372,46.8451565887539],[-114.02269914226,46.8451543165386],[-114.022711412093,46.8451505832727],[-114.022722597836,46.8451454928395],[-114.022732384517,46.8451391902655],[-114.022740496711,46.8451318532685],[-114.022746704785,46.8451236884044],[-114.022750833612,46.8451149253113],[-114.022752767431,46.8451058120093],[-114.022752450398,46.8450966058624],[-114.022749893766,46.8450875651796],[-114.022745167645,46.8450789450339],[-114.022738405634,46.8450709898654],[-114.022729829762,46.8450639487213],[-114.022806028686,46.8449437057585],[-114.023346897913,46.8445765020799],[-114.023346527293,46.8434860112917],[-114.023346470909,46.8433214910258],[-114.023861576611,46.8433224405775],[-114.023861275292,46.8424627790011],[-114.024011295963,46.8424644308591],[-114.026228004049,46.8424745518256],[-114.026232314496,46.8416311244336],[-114.026144461075,46.8415162521322],[-114.026153527039,46.8407370093852],[-114.026149801409,46.8405499521978],[-114.026389361555,46.8405503597799],[-114.028769888518,46.8405548263877],[-114.028772870563,46.8398145017306],[-114.028773748342,46.8396498354376],[-114.028776730283,46.8389095106979],[-114.028802703574,46.8387312857008],[-114.029060974658,46.8387039063136],[-114.031514500031,46.8387086584152],[-114.03151744417,46.8379683335189],[-114.031508831966,46.837766640525],[-114.031513446497,46.8365931237788],[-114.031514233667,46.8364613408693],[-114.031910881891,46.8364709231052],[-114.032270495141,46.836480520156],[-114.032629969992,46.8364900314217],[-114.032989575912,46.8364995363491],[-114.033348920075,46.8365090505567],[-114.033708571776,46.8365190923653],[-114.034068085081,46.8365290483904],[-114.034427655633,46.8365303456978],[-114.034871110711,46.8365308297855],[-114.035456599939,46.8365314321796],[-114.035456228741,46.8361475474192],[-114.035496171466,46.8361475813085],[-114.035499118715,46.8354861118626],[-114.035421698707,46.8352426368363],[-114.035345009367,46.8349957652503],[-114.035304199002,46.8348641328509],[-114.035247317967,46.8346806668618],[-114.035221542777,46.8345979339517],[-114.035183361692,46.8344025442612],[-114.035170642316,46.8343375042181],[-114.035247299146,46.8341252890094],[-114.03544691239,46.834151965696],[-114.035846565806,46.8341504912122],[-114.03969866163,46.8341362557455],[-114.039697436938,46.834603600534],[-114.03970223129,46.8361797388575],[-114.039712120753,46.8367822107692],[-114.039719759234,46.8379694129729],[-114.039775578345,46.8382798927158],[-114.039782238763,46.8406672152165],[-114.037034934638,46.8406751507908],[-114.037036895066,46.8410256847032],[-114.037037140659,46.8410695583331],[-114.037039101116,46.8414200922284],[-114.037033196049,46.8415846287106],[-114.037035358769,46.8419410852357],[-114.037035454518,46.8419569882895],[-114.037037546981,46.8423235896514],[-114.037038720496,46.8425292376362],[-114.037038172484,46.8426685885191],[-114.037037936065,46.8427289138127],[-114.037037699569,46.8427892382073],[-114.037037432453,46.8428569118291],[-114.037037260167,46.8429007849465],[-114.037036575919,46.8430749049895],[-114.037035891666,46.8432490250288],[-114.037035287998,46.8434135263347],[-114.037033931011,46.8437617785581],[-114.037033693068,46.8438056055967],[-114.037032377816,46.8441538543384],[-114.037332032715,46.8441530205304],[-114.037581894113,46.8441522740808],[-114.03783163214,46.8441516221534],[-114.038730851058,46.8441490117926],[-114.039793440098,46.8441459191056],[-114.039793940403,46.8443104939981],[-114.038230709439,46.8443149771127],[-114.037231638508,46.8443177699622],[-114.037031831903,46.8443184173402],[-114.037030378071,46.8446665814131],[-114.037030278677,46.8447104930933],[-114.037028832418,46.8450587470065],[-114.037028278891,46.8452232201324],[-114.037026844591,46.8455933823269],[-114.037025133498,46.8460457810584],[-114.037021864637,46.8468684369678],[-114.037021180102,46.8470329152673],[-114.037018325165,46.8477732948182],[-114.03701489734,46.8486565422831],[-114.037015877376,46.8488497323455],[-114.036903838616,46.8488489795008],[-114.036904364369,46.8489236106869],[-114.036899341853,46.849228008801],[-114.036898288023,46.84929017065],[-114.036889472887,46.8498248969237],[-114.036536244712,46.8498246020412],[-114.036536312395,46.8497834667772],[-114.036116666639,46.8497831440047],[-114.035896785449,46.8498241093959],[-114.034378068245,46.8498229247302],[-114.034138270843,46.8498227355444],[-114.032226737757,46.8498212122392],[-114.031907007472,46.849820953872],[-114.030256402081,46.8498196082014],[-114.029988628673,46.8498193874563],[-114.028935207552,46.8498185131183],[-114.02885679158,46.8498375466672],[-114.028289273713,46.8498396621766],[-114.028299671841,46.8505799555969],[-114.028371655491,46.8507228842986],[-114.028379036023,46.8523680821524],[-114.028323814249,46.8525325744361],[-114.02646529044,46.8525309990162],[-114.026463931293,46.8532713162371],[-114.026463614889,46.8534358686008],[-114.026462310667,46.8541762142088],[-114.026461986675,46.8543406766955],[-114.026460682408,46.8550810222181],[-114.026460365984,46.8552455745437],[-114.026459767859,46.8555937914659],[-114.026459659806,46.855637703076],[-114.026458930682,46.8559859251794],[-114.026457834577,46.8561022734896],[-114.026454029748,46.8564296106462],[-114.026451422655,46.8566489576792],[-114.018373287748,46.8566043593832],[-114.018297596912,46.8564112024954],[-114.018275866131,46.8563470962586],[-114.017897969803,46.8561024330627],[-114.016635934993,46.8570197173767],[-114.015531335028,46.8563045295707],[-114.014269253758,46.8572217877538],[-114.013164681066,46.8565065761727],[-114.011902554649,46.857423808172],[-114.011554176992,46.8571817077018],[-114.010740367544,46.8566546896477],[-114.009478196262,46.8575718948313],[-114.006958388089,46.8559400845967],[-114.007210970803,46.8559398519355],[-114.007758623229,46.8555654137368],[-114.007758587603,46.8555462115911],[-114.007897452755,46.8554532702529],[-114.008085816112,46.8553309580366],[-114.007896930541,46.8551988780329],[-114.007757630092,46.8550344873333],[-114.007754083539,46.85323025767],[-114.009491705035,46.8532259343956],[-114.009485270885,46.850540679845],[-114.011225823314,46.8505389038499],[-114.011221875371,46.8487272762822],[-114.017938183831,46.8487470822578],[-114.018117335362,46.8486278023228],[-114.018108500821,46.845240605131],[-114.020174655719,46.8452263108701],[-114.020174004832,46.8451526636762],[-114.022322387265,46.8451567088912],[-114.022672801618,46.8451573600892],[-114.022672818991,46.8451573323525]]]},"properties":{"OBJECTID":426,"FeatureName":"URD III","created_user":"svcgisdatainterop","created_date":"Tue, 23 Sep 2025 09:37:33 GMT","last_edited_user":"svcgisdatainterop","last_edited_date":"Tue, 23 Sep 2025 09:37:33 GMT","GlobalID":"ebeb2a02-575c-4004-979a-aa43857ce81f","MSO_ID":"AD-URD-10003","MSOID1":"AD","MSOID2":"URD","MSOID3":10003}}]}