{"type":"FeatureCollection", "features": [
{"type":"Feature","geometry":{"type":"Polygon","coordinates":[[[-115.17069,48.99957],[-115.13074,48.98454],[-115.15632,48.92659],[-115.24921,48.83299],[-115.30203,48.79426],[-115.29269,48.75242],[-115.30588,48.73977],[-115.3077,48.69847],[-115.31825,48.66171],[-115.26114,48.62305],[-115.2399,48.60203],[-115.21213,48.59478],[-115.20594,48.55705],[-115.26607,48.50874],[-115.28689,48.51714],[-115.26674,48.54277],[-115.22652,48.56117],[-115.23016,48.57899],[-115.27907,48.61968],[-115.32084,48.64003],[-115.33342,48.6727],[-115.31981,48.71484],[-115.32243,48.73465],[-115.30354,48.7566],[-115.31755,48.77654],[-115.31028,48.79997],[-115.25898,48.83614],[-115.2296,48.88601],[-115.19139,48.93155],[-115.17069,48.99957]]]},"properties":{"permanent_":"60176128","fdate":"2014-01-06T00:00:00.000Z","resolution":2,"gnis_id":"00806845","gnis_name":"Lake Koocanusa","areasqkm":116.85139086,"elevation":null,"reachcode":"17010101212849","ftype":390,"fcode":39004,"visibility":5000000,"SHAPE_Leng":null,"SHAPE_Area":null,"ObjectID":29633}},
{"type":"Feature","geometry":{"type":"Polygon","coordinates":[[[-111.55465,46.54159],[-111.56352,46.51747],[-111.55007,46.49565],[-111.51967,46.48854],[-111.51407,46.46111],[-111.48312,46.42695],[-111.50689,46.38294],[-111.5104,46.36227],[-111.56123,46.38468],[-111.57287,46.42386],[-111.56226,46.46089],[-111.58766,46.52328],[-111.62931,46.52837],[-111.65011,46.54743],[-111.67421,46.5856],[-111.70185,46.60473],[-111.7164,46.65079],[-111.68715,46.64097],[-111.64837,46.59326],[-111.58593,46.55484],[-111.55465,46.54159]]]},"properties":{"permanent_":"63168726","fdate":"2019-03-19T00:00:00.000Z","resolution":2,"gnis_id":"00800551","gnis_name":"Canyon Ferry Lake","areasqkm":132.77649973,"elevation":1157.3,"reachcode":"10030101004536","ftype":390,"fcode":39009,"visibility":5000000,"SHAPE_Leng":null,"SHAPE_Area":null,"ObjectID":48343}},
{"type":"Feature","geometry":{"type":"Polygon","coordinates":[[[-108.25083,44.99987],[-108.25918,45.00659],[-108.24884,45.0209],[-108.2515,45.02823],[-108.23707,45.05399],[-108.23973,45.06425],[-108.2217,45.07784],[-108.21891,45.09409],[-108.19677,45.10027],[-108.18235,45.12461],[-108.18438,45.13313],[-108.17234,45.13284],[-108.16469,45.13851],[-108.17077,45.14773],[-108.17384,45.15993],[-108.16277,45.1736],[-108.15243,45.17129],[-108.14582,45.19478],[-108.12886,45.19668],[-108.13851,45.18092],[-108.15022,45.17064],[-108.17244,45.15658],[-108.16235,45.14087],[-108.16941,45.13199],[-108.18165,45.12673],[-108.18537,45.10479],[-108.18971,45.09796],[-108.21739,45.09278],[-108.21911,45.07811],[-108.23566,45.0473],[-108.24848,45.03346],[-108.24842,45.01888],[-108.25521,45.00703],[-108.25083,44.99987]]]},"properties":{"permanent_":"120030832","fdate":"2016-12-01T00:00:00.000Z","resolution":2,"gnis_id":"00793611","gnis_name":"Bighorn Lake","areasqkm":50.27221138,"elevation":1109.5,"reachcode":"10080010001617","ftype":390,"fcode":39010,"visibility":5000000,"SHAPE_Leng":null,"SHAPE_Area":null,"ObjectID":62265}},
{"type":"Feature","geometry":{"type":"Polygon","coordinates":[[[-111.18733,48.36149],[-111.17805,48.36341],[-111.17473,48.3641],[-111.17203,48.36466],[-111.15307,48.32417],[-111.11228,48.33678],[-111.09233,48.32424],[-111.13068,48.29883],[-111.16551,48.30433],[-111.17254,48.33791],[-111.19887,48.34424],[-111.31116,48.33773],[-111.32906,48.35893],[-111.29552,48.36555],[-111.27403,48.3476],[-111.22703,48.34867],[-111.18733,48.36149]]]},"properties":{"permanent_":"144846718","fdate":"2022-05-03T00:00:00.000Z","resolution":2,"gnis_id":"00777636","gnis_name":"Lake Elwell","areasqkm":52.89971717,"elevation":908.9,"reachcode":"10030203002423","ftype":390,"fcode":39009,"visibility":5000000,"SHAPE_Leng":null,"SHAPE_Area":null,"ObjectID":77379}},
{"type":"Feature","geometry":{"type":"Polygon","coordinates":[[[-111.14845,44.77743],[-111.14821,44.77709],[-111.14879,44.77684],[-111.14917,44.77696],[-111.14922,44.77695],[-111.15035,44.77717],[-111.1504,44.77716],[-111.14984,44.77653],[-111.14974,44.77644],[-111.15388,44.77606],[-111.15413,44.77609],[-111.15597,44.77666],[-111.15712,44.77742],[-111.1585,44.77837],[-111.15861,44.77844],[-111.16011,44.77887],[-111.16017,44.77884],[-111.15986,44.77832],[-111.1598,44.77824],[-111.15973,44.77813],[-111.15987,44.77809],[-111.16133,44.77972],[-111.16135,44.77989],[-111.1616,44.77995],[-111.16162,44.77989],[-111.16241,44.77919],[-111.23141,44.77798],[-111.22842,44.76068],[-111.22544,44.7586],[-111.22598,44.75787],[-111.22715,44.75418],[-111.22665,44.75405],[-111.2332,44.75175],[-111.23624,44.75167],[-111.23508,44.74928],[-111.22861,44.74877],[-111.22726,44.75031],[-111.21212,44.75289],[-111.18023,44.73543],[-111.21898,44.7389],[-111.23982,44.74501],[-111.25871,44.74387],[-111.27659,44.78791],[-111.23705,44.80154],[-111.19749,44.79489],[-111.17726,44.80268],[-111.14845,44.77743]]]},"properties":{"permanent_":"52418878","fdate":"2012-08-17T00:00:00.000Z","resolution":2,"gnis_id":"00784702","gnis_name":"Hebgen Lake","areasqkm":50.20941267,"elevation":6534,"reachcode":"10020007003284","ftype":390,"fcode":39010,"visibility":5000000,"SHAPE_Leng":null,"SHAPE_Area":null,"ObjectID":127603}},
{"type":"Feature","geometry":{"type":"Polygon","coordinates":[[[-107.93398,47.375],[-107.93615,47.375],[-107.942,47.375],[-107.94641,47.375],[-107.92381,47.40477],[-107.92826,47.44069],[-107.91335,47.45824],[-107.91156,47.50575],[-107.94254,47.56244],[-107.99277,47.57882],[-107.98423,47.59014],[-107.92123,47.56432],[-107.91534,47.53276],[-107.89477,47.50686],[-107.90382,47.4707],[-107.87166,47.46363],[-107.86301,47.49616],[-107.86545,47.52956],[-107.83422,47.54403],[-107.76536,47.56501],[-107.72484,47.59016],[-107.7186,47.6149],[-107.67504,47.6379],[-107.66256,47.66106],[-107.63375,47.66462],[-107.52848,47.64963],[-107.50045,47.6315],[-107.44988,47.62454],[-107.43648,47.68787],[-107.40734,47.70766],[-107.36739,47.70257],[-107.34941,47.68935],[-107.29086,47.69026],[-107.23712,47.67157],[-107.16387,47.67121],[-107.08428,47.67929],[-107.03245,47.67425],[-107.00736,47.68261],[-106.93897,47.68455],[-106.90672,47.69417],[-106.91245,47.70898],[-106.97038,47.75216],[-106.9075,47.73902],[-106.89984,47.756],[-106.84214,47.75856],[-106.82746,47.771],[-106.7809,47.76376],[-106.79091,47.78736],[-106.7511,47.79339],[-106.73429,47.81807],[-106.71243,47.82781],[-106.66073,47.80769],[-106.65914,47.83687],[-106.62905,47.83821],[-106.62573,47.85694],[-106.58798,47.84723],[-106.58748,47.87501],[-106.56571,47.89513],[-106.5869,47.9254],[-106.64225,47.93213],[-106.6621,47.95446],[-106.57017,47.96116],[-106.48268,47.99838],[-106.43765,47.99596],[-106.3748,48.01577],[-106.29713,47.93456],[-106.37432,47.95508],[-106.37399,47.89838],[-106.3605,47.89276],[-106.35569,47.846],[-106.33401,47.82062],[-106.27753,47.7855],[-106.29477,47.77378],[-106.2741,47.73386],[-106.28285,47.71638],[-106.24094,47.69103],[-106.24135,47.65759],[-106.21878,47.64922],[-106.22166,47.62708],[-106.26387,47.6039],[-106.25387,47.64874],[-106.2893,47.68243],[-106.30759,47.71171],[-106.31888,47.77173],[-106.44666,47.84388],[-106.43144,47.86993],[-106.45305,47.88969],[-106.48287,47.89264],[-106.50651,47.87397],[-106.51626,47.83724],[-106.53724,47.80926],[-106.57302,47.80604],[-106.59771,47.77389],[-106.58554,47.73863],[-106.60921,47.73721],[-106.61896,47.7704],[-106.64421,47.77259],[-106.67907,47.75746],[-106.72842,47.7229],[-106.75744,47.69247],[-106.78774,47.72412],[-106.85387,47.72662],[-106.85327,47.6982],[-106.87983,47.66765],[-107.09236,47.65018],[-107.10666,47.6614],[-107.14269,47.66133],[-107.19487,47.64827],[-107.23734,47.65166],[-107.31408,47.67757],[-107.35606,47.67427],[-107.40818,47.68664],[-107.42303,47.6479],[-107.42124,47.62209],[-107.44044,47.60609],[-107.50561,47.61997],[-107.54967,47.64147],[-107.60713,47.63315],[-107.64529,47.61854],[-107.69581,47.61479],[-107.71089,47.5871],[-107.75623,47.55009],[-107.8053,47.5411],[-107.85677,47.51183],[-107.84792,47.48525],[-107.85873,47.4567],[-107.90834,47.44251],[-107.90434,47.4037],[-107.93398,47.375]]]},"properties":{"permanent_":"151162999","fdate":"2008-05-30T00:00:00.000Z","resolution":2,"gnis_id":"00771516","gnis_name":"Fort Peck Lake","areasqkm":944.116,"elevation":684.6,"reachcode":"10040104030150","ftype":390,"fcode":39009,"visibility":5000000,"SHAPE_Leng":null,"SHAPE_Area":null,"ObjectID":133121}},
{"type":"Feature","geometry":{"type":"Polygon","coordinates":[[[-113.77188,48.14374],[-113.78834,48.16537],[-113.78181,48.19902],[-113.81326,48.22571],[-113.84408,48.2356],[-113.87463,48.26953],[-113.95605,48.30521],[-113.99318,48.32906],[-113.93493,48.32589],[-113.88071,48.28893],[-113.81618,48.26545],[-113.7879,48.24566],[-113.77,48.21116],[-113.76489,48.17654],[-113.71315,48.13737],[-113.67103,48.06977],[-113.72369,48.10485],[-113.74407,48.13458],[-113.77188,48.14374]]]},"properties":{"permanent_":"61140001","fdate":"2012-06-08T00:00:00.000Z","resolution":2,"gnis_id":"00785165","gnis_name":"Hungry Horse Reservoir","areasqkm":95.4882983,"elevation":1085.1,"reachcode":"17010209001444","ftype":436,"fcode":43621,"visibility":5000000,"SHAPE_Leng":null,"SHAPE_Area":null,"ObjectID":152435}},
{"type":"Feature","geometry":{"type":"Polygon","coordinates":[[[-114.16041,48.08813],[-114.15623,48.08665],[-114.15358,48.08291],[-114.14818,48.08095],[-114.14784,48.08078],[-114.14267,48.07906],[-114.13445,48.07503],[-114.12704,48.07489],[-114.12665,48.0749],[-114.13203,48.07175],[-114.12904,48.06635],[-114.12717,48.05769],[-114.08907,48.06311],[-114.07627,48.01791],[-114.03255,47.94848],[-114.03336,47.89081],[-114.02759,47.87356],[-114.0419,47.83969],[-114.01544,47.79838],[-114.02002,47.75693],[-114.05018,47.7208],[-114.05528,47.69923],[-114.09613,47.70551],[-114.14785,47.69301],[-114.18324,47.70551],[-114.18743,47.72773],[-114.16537,47.75632],[-114.13501,47.77913],[-114.1852,47.81252],[-114.263,47.8134],[-114.29047,47.79979],[-114.31103,47.81822],[-114.28603,47.83728],[-114.27164,47.86744],[-114.22251,47.87311],[-114.21274,47.90095],[-114.16798,47.92226],[-114.19029,47.94632],[-114.1736,47.99067],[-114.22154,48.01672],[-114.23051,48.07781],[-114.2281,48.07664],[-114.22789,48.07581],[-114.22678,48.07371],[-114.22519,48.07279],[-114.22302,48.07238],[-114.21816,48.07575],[-114.16041,48.08813]],[[-114.13696,48.05305],[-114.13808,48.05168],[-114.14112,48.04799],[-114.13898,48.04611],[-114.13835,48.04727],[-114.13833,48.04808],[-114.13912,48.04827],[-114.13847,48.04992],[-114.1365,48.05286],[-114.13696,48.05305]]]},"properties":{"permanent_":"60787405","fdate":"2011-09-02T00:00:00.000Z","resolution":2,"gnis_id":"00783514","gnis_name":"Flathead Lake","areasqkm":494.734,"elevation":null,"reachcode":"17010208000828","ftype":390,"fcode":39004,"visibility":5000000,"SHAPE_Leng":null,"SHAPE_Area":null,"ObjectID":192747}},
{"type":"Feature","geometry":{"type":"Polygon","coordinates":[[[-111.7508,44.62505],[-111.73901,44.61622],[-111.7373,44.59334],[-111.69226,44.60103],[-111.69495,44.61101],[-111.7414,44.62963],[-111.75111,44.62559],[-111.75178,44.63828],[-111.82548,44.65296],[-111.89099,44.64758],[-111.85066,44.6801],[-111.85061,44.67986],[-111.85303,44.66838],[-111.85282,44.66768],[-111.81848,44.65944],[-111.81775,44.65888],[-111.77424,44.64531],[-111.75231,44.65608],[-111.75439,44.65423],[-111.7534,44.65374],[-111.71379,44.65815],[-111.68344,44.64881],[-111.64898,44.65048],[-111.64904,44.64995],[-111.65173,44.64648],[-111.65491,44.64633],[-111.67379,44.63427],[-111.67348,44.63399],[-111.6397,44.61411],[-111.64006,44.614],[-111.68315,44.58859],[-111.73743,44.59294],[-111.74158,44.6103],[-111.79722,44.63151],[-111.81236,44.61317],[-111.85823,44.62828],[-111.82414,44.62299],[-111.82843,44.64966],[-111.75504,44.6363],[-111.75638,44.63087],[-111.7508,44.62505]]]},"properties":{"permanent_":"53813107","fdate":"2016-10-06T00:00:00.000Z","resolution":2,"gnis_id":"","gnis_name":"","areasqkm":67.00461064,"elevation":null,"reachcode":"","ftype":466,"fcode":46600,"visibility":5000000,"SHAPE_Leng":null,"SHAPE_Area":null,"ObjectID":205667}}
]}