{"type":"FeatureCollection", "features": [
{"type":"Feature","geometry":{"type":"MultiPolygon","coordinates":[[[[-107.41954,45.56825],[-107.41421,45.56293],[-107.42777,45.55621],[-107.43002,45.55839],[-107.43408,45.56049],[-107.43845,45.55723],[-107.44039,45.55902],[-107.43481,45.56268],[-107.43755,45.56495],[-107.4413,45.56389],[-107.44461,45.56507],[-107.44268,45.56679],[-107.4262,45.57492],[-107.41954,45.56825]]],[[[-107.37906,45.52843],[-107.37905,45.52481],[-107.3739,45.52479],[-107.37429,45.51751],[-107.37943,45.5175],[-107.37939,45.52108],[-107.38418,45.52105],[-107.38422,45.52844],[-107.37906,45.52843]]]]},"properties":{"UNIT_TYPE":"National Monument","STATE":"MT","REGION":"IM","UNIT_CODE":"LIBI","UNIT_NAME":"Little Bighorn Battlefield National Monument","DATE_EDIT":"2005-02-23T00:00:00.000Z","GIS_NOTES":"Lands - http://landsnet.nps.gov/tractsnet/documents/LIBI/Metadata/libi_metadata.xml","CREATED_BY":"Lands","METADATA":"https://irma.nps.gov/DataStore/Reference/Profile/1048009","PARKNAME":"Little Bighorn Battlefield","GNIS_ID":"806297","ID_UK":"{64B622D6-CDC3-48EF-9745-C71FE199C366}","Shape_Leng":13664.8861689,"Shape_Area":3153571.00047}},
{"type":"Feature","geometry":{"type":"Polygon","coordinates":[[[-112.73343,46.41855],[-112.7353,46.40433],[-112.73861,46.40435],[-112.73904,46.40255],[-112.7447,46.40258],[-112.74472,46.40077],[-112.74993,46.40073],[-112.74994,46.3971],[-112.76559,46.39705],[-112.76569,46.41159],[-112.75335,46.4116],[-112.75286,46.4168],[-112.75059,46.42219],[-112.748,46.42683],[-112.7457,46.42878],[-112.74309,46.43272],[-112.73939,46.44051],[-112.7394,46.43331],[-112.73421,46.4333],[-112.73421,46.42972],[-112.72906,46.4297],[-112.73254,46.42159],[-112.73343,46.41855]]]},"properties":{"UNIT_TYPE":"National Historic Site","STATE":"MT","REGION":"IM","UNIT_CODE":"GRKO","UNIT_NAME":"Grant-Kohrs Ranch National Historic Site","DATE_EDIT":"2017-11-30T00:00:00.000Z","GIS_NOTES":"Lands - http://landsnet.nps.gov/tractsnet/documents/GRKO/Metadata/grko_metadata.xml","CREATED_BY":"Lands","METADATA":"https://irma.nps.gov/DataStore/Reference/Profile/2220223","PARKNAME":"Grant-Kohrs Ranch","GNIS_ID":"806847","ID_UK":"{336465CE-A932-4F28-AF12-BE9569F32667}","Shape_Leng":14148.8557769,"Shape_Area":6358552.07138}},
{"type":"Feature","geometry":{"type":"Polygon","coordinates":[[[-111.09728,44.48648],[-111.09708,44.48662],[-111.09707,44.5635],[-111.09718,44.65779],[-111.09723,44.72288],[-111.0972,44.75948],[-111.09726,44.82381],[-111.09724,44.88229],[-111.09719,44.92532],[-111.09679,45.02213],[-111.09887,45.0242],[-111.10265,45.02578],[-111.10455,45.02531],[-111.1106,45.02838],[-111.11253,45.03219],[-111.11676,45.03491],[-111.12041,45.03584],[-111.12043,45.03865],[-111.12345,45.03903],[-111.13211,45.04342],[-111.13317,45.04477],[-111.14014,45.04688],[-111.14207,45.04678],[-111.1506,45.05069],[-111.15552,45.05387],[-111.14496,45.06185],[-111.14001,45.06099],[-111.13474,45.06163],[-111.13863,45.06952],[-111.14095,45.07253],[-111.14126,45.07446],[-111.14009,45.07815],[-111.13659,45.0823],[-111.13142,45.08391],[-111.12971,45.08643],[-111.13015,45.08839],[-111.13392,45.08983],[-111.13393,45.09263],[-111.13052,45.09649],[-111.1321,45.09851],[-111.13018,45.10127],[-111.12235,45.1029],[-111.11695,45.10174],[-111.11305,45.10712],[-111.10654,45.1077],[-111.10365,45.10896],[-111.09654,45.10335],[-111.09271,45.10246],[-111.08587,45.10249],[-111.08352,45.10054],[-111.08309,45.09737],[-111.07941,45.0938],[-111.07679,45.09356],[-111.07363,45.09002],[-111.07414,45.08762],[-111.07075,45.08111],[-111.07077,45.0775],[-111.0692,45.07497],[-111.06584,45.07425],[-111.06282,45.06996],[-111.0565,45.06636],[-111.05361,45.06607],[-111.0497,45.06703],[-111.04819,45.07214],[-111.04545,45.07383],[-111.04121,45.07466],[-111.03856,45.07665],[-111.03517,45.07754],[-111.02904,45.081],[-111.02292,45.08087],[-111.01839,45.08208],[-111.02018,45.08494],[-111.0171,45.08817],[-111.01716,45.09146],[-111.01445,45.09368],[-111.00989,45.09589],[-111.00961,45.09835],[-111.00228,45.09725],[-111.00065,45.09795],[-110.99748,45.09668],[-110.99128,45.09281],[-110.98204,45.09144],[-110.98204,45.08867],[-110.97687,45.0842],[-110.97586,45.08182],[-110.97059,45.08107],[-110.96572,45.08253],[-110.96169,45.08238],[-110.95898,45.08083],[-110.96038,45.07938],[-110.95888,45.07681],[-110.95273,45.07606],[-110.94919,45.07326],[-110.94639,45.07344],[-110.94288,45.07494],[-110.94131,45.07409],[-110.94033,45.07129],[-110.94147,45.06872],[-110.9392,45.06604],[-110.93675,45.06476],[-110.93251,45.06696],[-110.93106,45.0632],[-110.93288,45.05986],[-110.93645,45.05515],[-110.93542,45.05287],[-110.93304,45.05258],[-110.93147,45.04994],[-110.92071,45.04802],[-110.91772,45.04634],[-110.91417,45.04254],[-110.91156,45.04157],[-110.9142,45.03786],[-110.91426,45.03457],[-110.90963,45.02962],[-110.84175,45.02957],[-110.84056,45.03134],[-110.83856,45.04083],[-110.83702,45.04562],[-110.8332,45.04483],[-110.83096,45.04647],[-110.82701,45.04767],[-110.82768,45.05188],[-110.82624,45.05412],[-110.81978,45.05576],[-110.81252,45.05452],[-110.80537,45.05519],[-110.8005,45.05759],[-110.79658,45.06026],[-110.79274,45.06148],[-110.78531,45.06266],[-110.77708,45.066],[-110.77221,45.06682],[-110.7683,45.06202],[-110.76395,45.05979],[-110.76244,45.05584],[-110.75999,45.05415],[-110.75279,45.05068],[-110.75066,45.04856],[-110.74239,45.04421],[-110.73362,45.04394],[-110.73011,45.04226],[-110.72487,45.03756],[-110.71864,45.03601],[-110.7164,45.03414],[-110.71226,45.03325],[-110.71212,45.02982],[-110.69822,45.02975],[-110.67755,45.02988],[-110.6195,45.02993],[-110.55859,45.0301],[-110.46603,45.02995],[-110.41457,45.02984],[-110.31168,45.0298],[-110.24996,45.02977],[-110.16666,45.02975],[-110.09497,45.02956],[-110.09109,45.03182],[-110.08215,45.03096],[-110.08098,45.02973],[-110.07413,45.03031],[-110.06979,45.03261],[-110.06435,45.03418],[-110.06105,45.03424],[-110.05611,45.03732],[-110.05381,45.03674],[-110.04973,45.03879],[-110.04814,45.04158],[-110.04226,45.04324],[-110.03844,45.0449],[-110.03679,45.04892],[-110.03426,45.05282],[-110.02596,45.05292],[-110.02364,45.05403],[-110.02184,45.05236],[-110.01606,45.05167],[-110.01141,45.05323],[-110.00851,45.05288],[-110.00511,45.05057],[-110.00342,45.04773],[-110.0003,45.04557],[-110.00211,45.04179],[-110.00427,45.04014],[-110.00388,45.03792],[-109.99797,45.0315],[-110.0018,45.02719],[-110.0015,45.01228],[-110.00184,45.00336],[-110.04405,45.00353],[-110.10578,45.00353],[-110.16666,44.99842],[-110.18322,44.99695],[-110.22397,44.99674],[-110.28477,44.99736],[-110.28926,44.9977],[-110.3252,44.99968],[-110.40712,44.9995],[-110.44585,44.99367],[-110.50698,44.99252],[-110.56728,44.99252],[-110.66417,44.99222],[-110.70448,44.99218],[-110.79012,45.00088],[-110.91199,45.00062],[-110.93235,45.00061],[-111.05456,45.00096],[-111.0545,44.91199],[-111.05427,44.82735],[-111.05407,44.73723],[-111.05332,44.65395],[-111.05307,44.59246],[-111.05273,44.52365],[-111.05244,44.47841],[-111.05579,44.4768],[-111.06468,44.47864],[-111.07017,44.4822],[-111.07479,44.48345],[-111.07839,44.48317],[-111.08056,44.48401],[-111.09197,44.48644],[-111.09728,44.48648]]]},"properties":{"UNIT_TYPE":"National Park","STATE":"WY","REGION":"IM","UNIT_CODE":"YELL","UNIT_NAME":"Yellowstone National Park","DATE_EDIT":"2008-04-23T00:00:00.000Z","GIS_NOTES":"Lands - http://landsnet.nps.gov/tractsnet/documents/YELL/Metadata/yell_metadata.xml","CREATED_BY":"Lands","METADATA":"https://irma.nps.gov/DataStore/Reference/Profile/1048199","PARKNAME":"Yellowstone","GNIS_ID":"1609331","ID_UK":"{EDF992F0-3145-4384-8041-6398104CB8EF}","Shape_Leng":479984.08344,"Shape_Area":8905820144.56}},
{"type":"Feature","geometry":{"type":"MultiPolygon","coordinates":[[[[-104.04395,47.99768],[-104.05001,48.00004],[-104.05001,48.00393],[-104.04398,48.00247],[-104.04395,47.99768]]],[[[-104.0441,47.99454],[-104.04922,47.99452],[-104.04895,47.99613],[-104.0441,47.99454]]]]},"properties":{"UNIT_TYPE":"National Historic Site","STATE":"ND","REGION":"MW","UNIT_CODE":"FOUS","UNIT_NAME":"Fort Union Trading Post National Historic Site","DATE_EDIT":"2018-07-24T00:00:00.000Z","GIS_NOTES":"Lands - http://landsnet.nps.gov/tractsnet/documents/FOUS/Metadata/FOUS_metadata.xml","CREATED_BY":"Lands","METADATA":"https://irma.nps.gov/DataStore/Reference/Profile/2225692","PARKNAME":"Fort Union Trading Post","GNIS_ID":"771520","ID_UK":"{2879740F-A55D-4B99-833B-BD079EDA67EB}","Shape_Leng":16549.7589026,"Shape_Area":1793446.05168}},
{"type":"Feature","geometry":{"type":"Polygon","coordinates":[[[-107.83064,45.35885],[-107.83323,45.35505],[-107.83317,45.3506],[-107.85621,45.35047],[-107.85622,45.34956],[-107.86775,45.34952],[-107.86734,45.34407],[-107.86736,45.33224],[-107.87684,45.32719],[-107.88629,45.32464],[-107.90873,45.3105],[-107.91431,45.30792],[-107.91864,45.30797],[-107.91867,45.30046],[-107.91355,45.30045],[-107.91353,45.26785],[-107.91865,45.26787],[-107.91864,45.26062],[-107.966,45.26064],[-107.96304,45.25876],[-107.9615,45.25592],[-107.95502,45.25153],[-107.95076,45.24626],[-107.95154,45.24423],[-107.95525,45.24251],[-107.96125,45.24345],[-107.96721,45.24899],[-107.96912,45.24933],[-107.97582,45.25334],[-107.98219,45.26056],[-107.98568,45.26048],[-107.9903,45.26243],[-107.99492,45.26233],[-107.99716,45.26371],[-107.99816,45.26687],[-108.00804,45.26754],[-108.01088,45.26812],[-108.01062,45.26267],[-108.00925,45.26048],[-108.00932,45.25749],[-108.00761,45.25435],[-108.00866,45.25078],[-108.01379,45.24931],[-108.01762,45.25137],[-108.0204,45.25102],[-108.02311,45.2487],[-108.02764,45.24861],[-108.03387,45.25011],[-108.03547,45.25172],[-108.03722,45.25651],[-108.04173,45.25717],[-108.04472,45.25161],[-108.05249,45.24723],[-108.0612,45.24619],[-108.06443,45.24621],[-108.06562,45.24421],[-108.06424,45.23994],[-108.06587,45.23569],[-108.06119,45.23484],[-108.0588,45.23324],[-108.05827,45.23094],[-108.05945,45.22915],[-108.06516,45.22597],[-108.06464,45.22089],[-108.06524,45.21815],[-108.06731,45.21456],[-108.07116,45.21288],[-108.07592,45.21448],[-108.07661,45.21854],[-108.07907,45.22173],[-108.08229,45.21995],[-108.08621,45.21891],[-108.09144,45.21461],[-108.09591,45.21403],[-108.09819,45.21184],[-108.10368,45.20981],[-108.10872,45.21012],[-108.11145,45.20965],[-108.11704,45.21019],[-108.11738,45.20708],[-108.1216,45.20193],[-108.12608,45.2004],[-108.12388,45.19792],[-108.12167,45.19702],[-108.12006,45.19449],[-108.12266,45.19117],[-108.12662,45.18944],[-108.1209,45.18699],[-108.11997,45.18453],[-108.1255,45.17817],[-108.13199,45.1761],[-108.13294,45.17426],[-108.13562,45.17291],[-108.14084,45.17391],[-108.14292,45.17655],[-108.14451,45.17397],[-108.14622,45.16677],[-108.14787,45.16509],[-108.15176,45.16332],[-108.15315,45.16014],[-108.15743,45.15782],[-108.16112,45.15701],[-108.16666,45.15706],[-108.16326,45.15082],[-108.16363,45.14735],[-108.1576,45.14475],[-108.15446,45.14246],[-108.15443,45.13865],[-108.15784,45.13665],[-108.16066,45.13315],[-108.16596,45.12914],[-108.17148,45.1277],[-108.17651,45.12767],[-108.17535,45.12527],[-108.17041,45.12571],[-108.16462,45.12359],[-108.16391,45.11959],[-108.1664,45.11745],[-108.17162,45.1176],[-108.17725,45.11606],[-108.17677,45.11435],[-108.17883,45.11027],[-108.16998,45.1074],[-108.16832,45.10383],[-108.17047,45.10116],[-108.17376,45.10049],[-108.1813,45.10203],[-108.18138,45.09999],[-108.18581,45.09533],[-108.18954,45.09383],[-108.19434,45.09321],[-108.19494,45.09104],[-108.19797,45.08929],[-108.2026,45.08988],[-108.20802,45.08856],[-108.21322,45.08904],[-108.21459,45.08574],[-108.21397,45.07804],[-108.21677,45.07392],[-108.22194,45.07158],[-108.22333,45.06983],[-108.22149,45.06736],[-108.22125,45.06476],[-108.22347,45.06134],[-108.22722,45.05948],[-108.21858,45.05698],[-108.21444,45.05213],[-108.21453,45.04723],[-108.21649,45.04356],[-108.22003,45.04186],[-108.22523,45.0417],[-108.22915,45.04291],[-108.23612,45.04266],[-108.23855,45.04125],[-108.24101,45.03485],[-108.24393,45.03099],[-108.24413,45.02805],[-108.24154,45.02383],[-108.23803,45.02368],[-108.23188,45.0248],[-108.22647,45.02235],[-108.2228,45.01867],[-108.2183,45.0196],[-108.21489,45.02103],[-108.21028,45.02105],[-108.20643,45.01877],[-108.19824,45.01641],[-108.19379,45.01868],[-108.19035,45.01951],[-108.18305,45.01674],[-108.18125,45.01871],[-108.17692,45.01964],[-108.16882,45.01729],[-108.16607,45.01931],[-108.16218,45.0201],[-108.15878,45.01882],[-108.15214,45.01757],[-108.14045,45.01136],[-108.1396,45.00993],[-108.13223,45.00927],[-108.13046,45.00816],[-108.12291,45.00667],[-108.12027,45.00557],[-108.11067,45.00468],[-108.10793,45.00296],[-108.10691,45.00064],[-108.13225,45.00055],[-108.15236,45.00104],[-108.17282,45.00094],[-108.23059,45.00042],[-108.25098,44.99987],[-108.27053,45.0002],[-108.28077,45.0002],[-108.28068,45.01648],[-108.2807,45.05624],[-108.28581,45.05624],[-108.28579,45.0671],[-108.2909,45.0671],[-108.2909,45.08523],[-108.29601,45.08523],[-108.29601,45.0961],[-108.30111,45.0961],[-108.30111,45.11781],[-108.29601,45.11781],[-108.29602,45.13229],[-108.29092,45.13229],[-108.29094,45.14678],[-108.20915,45.14682],[-108.20912,45.16131],[-108.1989,45.16131],[-108.19888,45.17581],[-108.19351,45.1758],[-108.19351,45.18304],[-108.17303,45.18302],[-108.17301,45.22049],[-108.23447,45.2203],[-108.23456,45.2718],[-108.20453,45.27177],[-108.20455,45.27901],[-108.16354,45.27903],[-108.16355,45.28628],[-108.13277,45.28629],[-108.13278,45.29353],[-108.08141,45.29353],[-108.08141,45.30077],[-108.03523,45.30081],[-108.03522,45.30805],[-108.03008,45.30804],[-108.03005,45.32979],[-107.96907,45.32962],[-107.96906,45.33324],[-107.96484,45.33322],[-107.96484,45.32959],[-107.95969,45.32956],[-107.95969,45.33319],[-107.94944,45.33318],[-107.94944,45.32044],[-107.92374,45.32041],[-107.92374,45.3186],[-107.9186,45.31859],[-107.9186,45.32222],[-107.91349,45.32221],[-107.91349,45.32946],[-107.90836,45.32946],[-107.90836,45.34034],[-107.89555,45.34025],[-107.89549,45.34408],[-107.89228,45.34408],[-107.89228,45.34589],[-107.88458,45.34589],[-107.88459,45.3477],[-107.87942,45.3477],[-107.87944,45.35493],[-107.86913,45.35493],[-107.86911,45.35677],[-107.86397,45.35679],[-107.86398,45.3595],[-107.85113,45.35953],[-107.85112,45.35859],[-107.84089,45.3586],[-107.82549,45.37311],[-107.81908,45.37703],[-107.81908,45.38066],[-107.81523,45.38429],[-107.82037,45.38608],[-107.81522,45.40236],[-107.75984,45.44409],[-107.75984,45.4459],[-107.7517,45.44616],[-107.75184,45.4374],[-107.75966,45.4374],[-107.78242,45.41727],[-107.8003,45.40442],[-107.80025,45.39356],[-107.80278,45.38811],[-107.80779,45.38079],[-107.80523,45.37717],[-107.80767,45.37347],[-107.8128,45.37344],[-107.82299,45.36613],[-107.82812,45.35888],[-107.83064,45.35885]]]},"properties":{"UNIT_TYPE":"National Recreation Area","STATE":"WY","REGION":"IM","UNIT_CODE":"BICA","UNIT_NAME":"Bighorn Canyon National Recreation Area","DATE_EDIT":"2012-01-11T00:00:00.000Z","GIS_NOTES":"Lands - http://landsnet.nps.gov/tractsnet/documents/BICA/Metadata/bica_metadata.xml","CREATED_BY":"Lands","METADATA":"https://irma.nps.gov/DataStore/Reference/Profile/2182227","PARKNAME":"Bighorn Canyon","GNIS_ID":"767934","ID_UK":"{14C29EE8-8E63-4309-BDB0-B939F70DCF4F}","Shape_Leng":305253.174461,"Shape_Area":484761480.481}},
{"type":"Feature","geometry":{"type":"Polygon","coordinates":[[[-114.07799,48.99894],[-114.06818,48.99885],[-113.97497,48.99874],[-113.90604,48.99867],[-113.82493,48.99822],[-113.69477,48.99749],[-113.60971,48.99796],[-113.60975,48.93293],[-113.59416,48.91402],[-113.57334,48.88905],[-113.53376,48.84113],[-113.48743,48.78504],[-113.4365,48.75081],[-113.43682,48.74962],[-113.43319,48.74704],[-113.43038,48.74141],[-113.42619,48.73885],[-113.42338,48.73491],[-113.42185,48.73074],[-113.42227,48.72462],[-113.41999,48.72173],[-113.41898,48.71606],[-113.42042,48.7152],[-113.41937,48.70499],[-113.42074,48.7013],[-113.41937,48.69774],[-113.42154,48.6933],[-113.40134,48.66513],[-113.39191,48.64957],[-113.36724,48.60942],[-113.3413,48.56638],[-113.30209,48.50161],[-113.28395,48.47529],[-113.24188,48.41322],[-113.24989,48.40927],[-113.25319,48.40522],[-113.25453,48.40008],[-113.25839,48.39256],[-113.26005,48.39086],[-113.27061,48.38558],[-113.27348,48.3838],[-113.27601,48.38067],[-113.28,48.37332],[-113.28149,48.36873],[-113.28894,48.36259],[-113.29656,48.35927],[-113.30455,48.35308],[-113.30686,48.3506],[-113.31169,48.34813],[-113.31707,48.34709],[-113.32287,48.34285],[-113.33024,48.33639],[-113.33854,48.33184],[-113.34376,48.3262],[-113.35022,48.32245],[-113.36325,48.31298],[-113.36455,48.31152],[-113.36472,48.3047],[-113.36721,48.30295],[-113.37337,48.30157],[-113.38093,48.30167],[-113.38452,48.29957],[-113.38628,48.29733],[-113.39386,48.29425],[-113.40218,48.29448],[-113.41307,48.29653],[-113.41569,48.29664],[-113.41933,48.29499],[-113.42027,48.2916],[-113.42315,48.28936],[-113.42504,48.28633],[-113.42772,48.28464],[-113.42896,48.28177],[-113.43386,48.28055],[-113.44965,48.28454],[-113.45256,48.28438],[-113.4542,48.28239],[-113.45334,48.28096],[-113.44877,48.27755],[-113.44908,48.27503],[-113.45427,48.27221],[-113.45547,48.27017],[-113.4548,48.26715],[-113.45954,48.26268],[-113.46146,48.26171],[-113.46656,48.26128],[-113.46878,48.25793],[-113.47339,48.25253],[-113.4748,48.24903],[-113.47869,48.24825],[-113.4868,48.24537],[-113.49037,48.24325],[-113.50072,48.24228],[-113.50892,48.24285],[-113.51628,48.2408],[-113.52002,48.23927],[-113.52508,48.23941],[-113.5314,48.23827],[-113.53379,48.23709],[-113.54178,48.2348],[-113.54964,48.23371],[-113.56286,48.23536],[-113.5658,48.23651],[-113.5704,48.2407],[-113.56807,48.24319],[-113.57036,48.24568],[-113.57377,48.24454],[-113.57473,48.2465],[-113.5712,48.25198],[-113.5712,48.25451],[-113.57332,48.25633],[-113.57672,48.25717],[-113.577,48.26017],[-113.58303,48.26126],[-113.58406,48.26373],[-113.5873,48.2659],[-113.59509,48.26495],[-113.60127,48.2665],[-113.60484,48.26974],[-113.60406,48.27566],[-113.60561,48.28056],[-113.60049,48.28293],[-113.59851,48.28243],[-113.59349,48.28675],[-113.59422,48.289],[-113.59697,48.29117],[-113.59859,48.29405],[-113.60424,48.29455],[-113.60536,48.29765],[-113.60813,48.30013],[-113.61212,48.30056],[-113.61248,48.30248],[-113.60948,48.30365],[-113.60916,48.30631],[-113.61253,48.30966],[-113.61562,48.31101],[-113.62017,48.31596],[-113.6264,48.31785],[-113.62723,48.3188],[-113.62488,48.3214],[-113.62714,48.32308],[-113.62572,48.32472],[-113.62748,48.32691],[-113.63013,48.32747],[-113.6327,48.32439],[-113.6342,48.32522],[-113.63552,48.32918],[-113.64052,48.33394],[-113.64066,48.33636],[-113.63879,48.33884],[-113.63797,48.34193],[-113.64113,48.34525],[-113.64271,48.35088],[-113.64081,48.35317],[-113.64096,48.359],[-113.64999,48.36449],[-113.65844,48.3647],[-113.65885,48.36949],[-113.66418,48.37133],[-113.66783,48.37003],[-113.67109,48.37092],[-113.66976,48.37585],[-113.67038,48.37771],[-113.67302,48.37965],[-113.6764,48.37843],[-113.67722,48.37524],[-113.68089,48.37584],[-113.67968,48.37808],[-113.68017,48.38177],[-113.68414,48.38436],[-113.68459,48.386],[-113.68236,48.38941],[-113.68792,48.38989],[-113.69048,48.39211],[-113.69587,48.39094],[-113.69938,48.39294],[-113.70193,48.39163],[-113.70327,48.39614],[-113.70581,48.39752],[-113.70547,48.40013],[-113.70664,48.40261],[-113.71118,48.40406],[-113.71421,48.40879],[-113.72017,48.41249],[-113.72195,48.41616],[-113.72397,48.41581],[-113.73095,48.42015],[-113.73508,48.42053],[-113.73903,48.41963],[-113.74792,48.42047],[-113.75642,48.41975],[-113.7593,48.42056],[-113.76355,48.42381],[-113.7693,48.42561],[-113.7775,48.42642],[-113.78521,48.42558],[-113.78854,48.4259],[-113.79405,48.42868],[-113.79527,48.43636],[-113.79927,48.43925],[-113.80203,48.44012],[-113.8031,48.44338],[-113.79976,48.44738],[-113.8005,48.45001],[-113.80252,48.45046],[-113.80094,48.45433],[-113.80534,48.45937],[-113.81014,48.46277],[-113.8138,48.46883],[-113.81754,48.47314],[-113.82168,48.47629],[-113.83243,48.48263],[-113.83745,48.48505],[-113.83943,48.4869],[-113.84525,48.48785],[-113.84764,48.48914],[-113.85081,48.48868],[-113.85249,48.4927],[-113.85646,48.4955],[-113.86023,48.49463],[-113.86326,48.493],[-113.8692,48.49428],[-113.87285,48.49321],[-113.87955,48.49348],[-113.88432,48.49513],[-113.887,48.49717],[-113.88944,48.49745],[-113.89296,48.49537],[-113.89754,48.49448],[-113.90387,48.49447],[-113.90639,48.4934],[-113.91045,48.49361],[-113.91645,48.49615],[-113.9181,48.5002],[-113.92028,48.50025],[-113.9251,48.49857],[-113.93071,48.5025],[-113.93702,48.5019],[-113.94389,48.50263],[-113.94698,48.50128],[-113.94807,48.49776],[-113.95338,48.49539],[-113.96191,48.49911],[-113.96476,48.49881],[-113.96969,48.49987],[-113.97548,48.5004],[-113.98165,48.49976],[-113.9857,48.49799],[-113.99059,48.49997],[-113.99104,48.5042],[-113.99275,48.50598],[-113.99688,48.50793],[-114.00531,48.50804],[-114.00649,48.50542],[-114.00731,48.49904],[-114.00677,48.49678],[-114.01137,48.49598],[-114.01517,48.49433],[-114.02146,48.49067],[-114.0223,48.48774],[-114.02397,48.48646],[-114.02706,48.48678],[-114.03714,48.48574],[-114.04301,48.48327],[-114.04742,48.47979],[-114.05057,48.47943],[-114.05765,48.47321],[-114.06322,48.47155],[-114.07143,48.46837],[-114.07458,48.47105],[-114.08019,48.47166],[-114.08498,48.4701],[-114.08869,48.47034],[-114.09074,48.47191],[-114.094,48.48131],[-114.09536,48.48268],[-114.10228,48.48442],[-114.10568,48.48627],[-114.10844,48.48903],[-114.1143,48.48973],[-114.11925,48.48876],[-114.12428,48.4893],[-114.12585,48.49139],[-114.12472,48.49309],[-114.12711,48.49599],[-114.1284,48.49992],[-114.12786,48.50309],[-114.12592,48.50504],[-114.12876,48.50715],[-114.13661,48.50626],[-114.13955,48.50731],[-114.13797,48.51072],[-114.13298,48.51084],[-114.13045,48.51508],[-114.12761,48.51681],[-114.12171,48.52244],[-114.12285,48.52615],[-114.11985,48.52777],[-114.11493,48.52861],[-114.11515,48.53157],[-114.11858,48.53496],[-114.11755,48.53669],[-114.11363,48.53799],[-114.11488,48.54115],[-114.11844,48.54164],[-114.12079,48.54607],[-114.12519,48.54809],[-114.12402,48.55439],[-114.12613,48.55644],[-114.12632,48.56026],[-114.12507,48.56418],[-114.12816,48.56966],[-114.13144,48.57212],[-114.13972,48.57704],[-114.14189,48.57758],[-114.1514,48.57794],[-114.15589,48.57965],[-114.15763,48.58347],[-114.15647,48.58795],[-114.15198,48.59036],[-114.15388,48.59317],[-114.16383,48.5935],[-114.16702,48.59559],[-114.16152,48.59866],[-114.16067,48.60049],[-114.1628,48.60397],[-114.16732,48.60409],[-114.17138,48.6072],[-114.17157,48.60881],[-114.16706,48.61068],[-114.1581,48.61056],[-114.15401,48.61163],[-114.15173,48.61397],[-114.14964,48.61777],[-114.1473,48.61914],[-114.14281,48.6183],[-114.13803,48.61996],[-114.14099,48.62406],[-114.14256,48.6299],[-114.14688,48.63322],[-114.15521,48.63645],[-114.15772,48.63791],[-114.15703,48.64125],[-114.16328,48.6438],[-114.16805,48.64816],[-114.16836,48.65007],[-114.17319,48.65507],[-114.17283,48.65839],[-114.17432,48.65999],[-114.17816,48.66171],[-114.1882,48.66978],[-114.18916,48.67415],[-114.19393,48.67736],[-114.19329,48.68025],[-114.18852,48.68167],[-114.18719,48.68464],[-114.189,48.688],[-114.19142,48.68981],[-114.19491,48.69087],[-114.20189,48.69132],[-114.20666,48.69343],[-114.20877,48.69617],[-114.20659,48.70002],[-114.20842,48.70819],[-114.21099,48.71231],[-114.21639,48.71463],[-114.22262,48.7129],[-114.2255,48.7134],[-114.23933,48.71807],[-114.24477,48.71811],[-114.24874,48.71923],[-114.25279,48.72488],[-114.25322,48.7282],[-114.25514,48.73112],[-114.25824,48.73273],[-114.2639,48.73228],[-114.26494,48.73513],[-114.26384,48.73858],[-114.26345,48.74325],[-114.26169,48.74706],[-114.26321,48.75],[-114.26676,48.75248],[-114.27191,48.75735],[-114.27766,48.76028],[-114.27858,48.76285],[-114.27737,48.76511],[-114.27877,48.76993],[-114.27917,48.77836],[-114.28,48.78102],[-114.2874,48.78821],[-114.29064,48.79011],[-114.2958,48.79046],[-114.29801,48.79288],[-114.30498,48.7931],[-114.3061,48.79604],[-114.30872,48.79716],[-114.31688,48.79658],[-114.32006,48.79909],[-114.31899,48.80204],[-114.32135,48.80461],[-114.32692,48.80706],[-114.32987,48.81699],[-114.33547,48.81738],[-114.34082,48.82063],[-114.34131,48.82441],[-114.33848,48.82706],[-114.33774,48.83007],[-114.33535,48.83395],[-114.34204,48.83543],[-114.3459,48.83834],[-114.34697,48.84067],[-114.3472,48.84513],[-114.3531,48.84987],[-114.3517,48.85334],[-114.34786,48.85335],[-114.34745,48.85482],[-114.35159,48.85696],[-114.35678,48.85796],[-114.36027,48.85681],[-114.36496,48.85643],[-114.36765,48.85932],[-114.36227,48.86413],[-114.36057,48.86804],[-114.36258,48.87283],[-114.36666,48.87507],[-114.37185,48.8742],[-114.37378,48.87521],[-114.37778,48.8801],[-114.37597,48.88256],[-114.36717,48.88315],[-114.366,48.88602],[-114.36974,48.88816],[-114.37124,48.8904],[-114.37073,48.89474],[-114.37378,48.89715],[-114.37882,48.89811],[-114.37929,48.90085],[-114.37763,48.905],[-114.37463,48.90722],[-114.37626,48.90936],[-114.38106,48.90893],[-114.38386,48.90994],[-114.38436,48.91185],[-114.38077,48.91371],[-114.37521,48.91488],[-114.37724,48.91737],[-114.38452,48.91766],[-114.38706,48.91932],[-114.3879,48.92175],[-114.38541,48.92608],[-114.39231,48.93006],[-114.39433,48.93622],[-114.40064,48.94138],[-114.40691,48.9405],[-114.41106,48.94153],[-114.41336,48.94766],[-114.41198,48.94982],[-114.41277,48.95179],[-114.41656,48.95329],[-114.42157,48.95187],[-114.42522,48.95363],[-114.42506,48.95584],[-114.42322,48.95811],[-114.42406,48.95962],[-114.42759,48.96039],[-114.43381,48.96491],[-114.43549,48.96669],[-114.43596,48.96943],[-114.44355,48.97257],[-114.44662,48.97479],[-114.44749,48.97681],[-114.45268,48.98107],[-114.45157,48.98351],[-114.45233,48.98551],[-114.45579,48.98769],[-114.46129,48.98842],[-114.46551,48.9926],[-114.46964,48.99757],[-114.47377,48.99895],[-114.47495,49.00108],[-114.42893,49.00106],[-114.36193,49.0011],[-114.23169,49.00019],[-114.07799,48.99894]]]},"properties":{"UNIT_TYPE":"National Park","STATE":"MT","REGION":"IM","UNIT_CODE":"GLAC","UNIT_NAME":"Glacier National Park","DATE_EDIT":"2017-08-18T00:00:00.000Z","GIS_NOTES":"Lands - http://landsnet.nps.gov/tractsnet/documents/GLAC/Metadata/GLAC_metadata.xml","CREATED_BY":"Lands","METADATA":"https://irma.nps.gov/DataStore/Reference/Profile/2230264","PARKNAME":"Glacier National Park","GNIS_ID":"1803454","ID_UK":"{394EDF28-59E3-4D6F-9974-EE45FA966735}","Shape_Leng":334709.380081,"Shape_Area":4078235273.58}},
{"type":"Feature","geometry":{"type":"Polygon","coordinates":[[[-113.64215,45.65647],[-113.64215,45.65285],[-113.63183,45.65298],[-113.63185,45.63846],[-113.64216,45.63837],[-113.64216,45.63588],[-113.65508,45.63834],[-113.65508,45.64196],[-113.66025,45.64195],[-113.66027,45.65282],[-113.6551,45.65283],[-113.6551,45.65644],[-113.64215,45.65647]]]},"properties":{"UNIT_TYPE":"National Battlefield","STATE":"MT","REGION":"PW","UNIT_CODE":"BIHO","UNIT_NAME":"Big Hole National Battlefield","DATE_EDIT":"2015-11-06T00:00:00.000Z","GIS_NOTES":"Lands - http://landsnet.nps.gov/tractsnet/documents/BIHO/Metadata/BIHO_metadata.xml","CREATED_BY":"Lands","METADATA":"https://irma.nps.gov/DataStore/Reference/Profile/2225687","PARKNAME":"Big Hole National Battlefield","GNIS_ID":"779820","ID_UK":"{F49F4323-BF4B-41A2-9776-584EA171F3FC}","Shape_Leng":8862.06899258,"Shape_Area":3952453.44921}},
{"type":"Feature","geometry":{"type":"Polygon","coordinates":[[[-109.19754,48.38411],[-109.19435,48.3841],[-109.19452,48.35818],[-109.20282,48.35827],[-109.20716,48.3652],[-109.21192,48.37014],[-109.2136,48.37307],[-109.2161,48.37307],[-109.21613,48.3801],[-109.22727,48.38001],[-109.22729,48.38732],[-109.21615,48.38734],[-109.21612,48.38417],[-109.19754,48.38411]]]},"properties":{"UNIT_TYPE":"National Historical Park","STATE":"WA","REGION":"PW","UNIT_CODE":"NEPE","UNIT_NAME":"Nez Perce National Historical Park","DATE_EDIT":"2013-12-18T00:00:00.000Z","GIS_NOTES":"PRELIMINARY - Data has not completed the entire Lands QA/QC process.","CREATED_BY":"Legacy","METADATA":"Preliminary data. Contact the Land Resources Program for additional information.","PARKNAME":"Nez Perce National Historical Park","GNIS_ID":"394735","ID_UK":"{429BD5E9-11BB-46DF-808C-FBEDB8A13A88}","Shape_Leng":60696.6037715,"Shape_Area":17086638.2782}}
]}